<?xml version="1.0" encoding="UTF-8" ?>
<gpx
  version="1.1"
  creator="Tranggle Track 1.1.0 - http://www.beaglemap.com"
  xmlns:xsi="http://www.w3.org/2001/XMLSchema-instance"
  xmlns="http://www.topografix.com/GPX/1/1"
  xsi:schemaLocation="http://www.topografix.com/GPX/1/1 http://www.topografix.com/GPX/1/1/gpx.xsd">
  <metadata>
    <link href="http://www.beaglemap.com">
      <text>iPhone Tranggle 3.5.0</text>
    </link>
    <time>2016-10-15T22:24:49Z</time>
    <bounds minlat="28.296453" minlon="83.820708" maxlat="28.346035" maxlon="83.832677"/>
    <desc><![CDATA[CREATOR: F291188211BF24A4, MODEL: iPad5,4, FIRMWARE: 10.0.2, CONSTANT: M22, CATEGORY: Hiking]]></desc>
  </metadata>
  <trk>
    <trkseg>
    <trkpt lat="28.296453" lon="83.820909">
      <ele>1737.901855</ele>
      <time>2016-10-15T18:54:50Z</time>
    </trkpt>
    <trkpt lat="28.296531" lon="83.820966">
      <ele>1737.901855</ele>
      <time>2016-10-15T18:55:08Z</time>
    </trkpt>
    <trkpt lat="28.296609" lon="83.820996">
      <ele>1737.916992</ele>
      <time>2016-10-15T18:55:30Z</time>
    </trkpt>
    <trkpt lat="28.296690" lon="83.821002">
      <ele>1737.924561</ele>
      <time>2016-10-15T18:55:54Z</time>
    </trkpt>
    <trkpt lat="28.296775" lon="83.820999">
      <ele>1739.121244</ele>
      <time>2016-10-15T18:56:10Z</time>
    </trkpt>
    <trkpt lat="28.296862" lon="83.821013">
      <ele>1740.099139</ele>
      <time>2016-10-15T18:56:25Z</time>
    </trkpt>
    <trkpt lat="28.296942" lon="83.821047">
      <ele>1741.010282</ele>
      <time>2016-10-15T18:56:41Z</time>
    </trkpt>
    <trkpt lat="28.297023" lon="83.821078">
      <ele>1741.682897</ele>
      <time>2016-10-15T18:57:03Z</time>
    </trkpt>
    <trkpt lat="28.297105" lon="83.821114">
      <ele>1742.906086</ele>
      <time>2016-10-15T18:57:21Z</time>
    </trkpt>
    <trkpt lat="28.297194" lon="83.821143">
      <ele>1744.589438</ele>
      <time>2016-10-15T18:57:37Z</time>
    </trkpt>
    <trkpt lat="28.297285" lon="83.821163">
      <ele>1746.289855</ele>
      <time>2016-10-15T18:57:47Z</time>
    </trkpt>
    <trkpt lat="28.297375" lon="83.821163">
      <ele>1747.749948</ele>
      <time>2016-10-15T18:57:58Z</time>
    </trkpt>
    <trkpt lat="28.297464" lon="83.821166">
      <ele>1749.185749</ele>
      <time>2016-10-15T18:58:12Z</time>
    </trkpt>
    <trkpt lat="28.297550" lon="83.821187">
      <ele>1750.372065</ele>
      <time>2016-10-15T18:58:24Z</time>
    </trkpt>
    <trkpt lat="28.297635" lon="83.821231">
      <ele>1751.332815</ele>
      <time>2016-10-15T18:58:38Z</time>
    </trkpt>
    <trkpt lat="28.297719" lon="83.821264">
      <ele>1752.560090</ele>
      <time>2016-10-15T18:58:52Z</time>
    </trkpt>
    <trkpt lat="28.297806" lon="83.821285">
      <ele>1753.352932</ele>
      <time>2016-10-15T18:59:01Z</time>
    </trkpt>
    <trkpt lat="28.297894" lon="83.821307">
      <ele>1754.059682</ele>
      <time>2016-10-15T18:59:12Z</time>
    </trkpt>
    <trkpt lat="28.297978" lon="83.821350">
      <ele>1754.673720</ele>
      <time>2016-10-15T18:59:26Z</time>
    </trkpt>
    <trkpt lat="28.298059" lon="83.821403">
      <ele>1755.837810</ele>
      <time>2016-10-15T18:59:40Z</time>
    </trkpt>
    <trkpt lat="28.298128" lon="83.821469">
      <ele>1757.629049</ele>
      <time>2016-10-15T18:59:55Z</time>
    </trkpt>
    <trkpt lat="28.298195" lon="83.821538">
      <ele>1759.136503</ele>
      <time>2016-10-15T19:01:20Z</time>
    </trkpt>
    <trkpt lat="28.298266" lon="83.821601">
      <ele>1760.114270</ele>
      <time>2016-10-15T19:01:43Z</time>
    </trkpt>
    <trkpt lat="28.298348" lon="83.821649">
      <ele>1760.755816</ele>
      <time>2016-10-15T19:01:57Z</time>
    </trkpt>
    <trkpt lat="28.298431" lon="83.821695">
      <ele>1761.337470</ele>
      <time>2016-10-15T19:02:11Z</time>
    </trkpt>
    <trkpt lat="28.298510" lon="83.821747">
      <ele>1761.961061</ele>
      <time>2016-10-15T19:02:22Z</time>
    </trkpt>
    <trkpt lat="28.298589" lon="83.821801">
      <ele>1762.902810</ele>
      <time>2016-10-15T19:02:32Z</time>
    </trkpt>
    <trkpt lat="28.298668" lon="83.821847">
      <ele>1764.002096</ele>
      <time>2016-10-15T19:02:48Z</time>
    </trkpt>
    <trkpt lat="28.298750" lon="83.821886">
      <ele>1765.253811</ele>
      <time>2016-10-15T19:03:05Z</time>
    </trkpt>
    <trkpt lat="28.298833" lon="83.821919">
      <ele>1766.689341</ele>
      <time>2016-10-15T19:03:25Z</time>
    </trkpt>
    <trkpt lat="28.298912" lon="83.821917">
      <ele>1768.130297</ele>
      <time>2016-10-15T19:03:44Z</time>
    </trkpt>
    <trkpt lat="28.298973" lon="83.821872">
      <ele>1769.687266</ele>
      <time>2016-10-15T19:04:09Z</time>
    </trkpt>
    <trkpt lat="28.299023" lon="83.821793">
      <ele>1771.478899</ele>
      <time>2016-10-15T19:04:42Z</time>
    </trkpt>
    <trkpt lat="28.299075" lon="83.821717">
      <ele>1773.510493</ele>
      <time>2016-10-15T19:05:22Z</time>
    </trkpt>
    <trkpt lat="28.299149" lon="83.821671">
      <ele>1775.739374</ele>
      <time>2016-10-15T19:05:39Z</time>
    </trkpt>
    <trkpt lat="28.299235" lon="83.821661">
      <ele>1778.076745</ele>
      <time>2016-10-15T19:05:58Z</time>
    </trkpt>
    <trkpt lat="28.299328" lon="83.821669">
      <ele>1780.410479</ele>
      <time>2016-10-15T19:06:11Z</time>
    </trkpt>
    <trkpt lat="28.299420" lon="83.821677">
      <ele>1782.665912</ele>
      <time>2016-10-15T19:06:25Z</time>
    </trkpt>
    <trkpt lat="28.299513" lon="83.821672">
      <ele>1785.065973</ele>
      <time>2016-10-15T19:06:43Z</time>
    </trkpt>
    <trkpt lat="28.299599" lon="83.821661">
      <ele>1787.491841</ele>
      <time>2016-10-15T19:06:58Z</time>
    </trkpt>
    <trkpt lat="28.299658" lon="83.821623">
      <ele>1790.012706</ele>
      <time>2016-10-15T19:07:37Z</time>
    </trkpt>
    <trkpt lat="28.299707" lon="83.821565">
      <ele>1791.220351</ele>
      <time>2016-10-15T19:08:20Z</time>
    </trkpt>
    <trkpt lat="28.299726" lon="83.821481">
      <ele>1793.622583</ele>
      <time>2016-10-15T19:08:50Z</time>
    </trkpt>
    <trkpt lat="28.299758" lon="83.821398">
      <ele>1796.007269</ele>
      <time>2016-10-15T19:09:11Z</time>
    </trkpt>
    <trkpt lat="28.299780" lon="83.821305">
      <ele>1798.374596</ele>
      <time>2016-10-15T19:09:27Z</time>
    </trkpt>
    <trkpt lat="28.299828" lon="83.821222">
      <ele>1800.919933</ele>
      <time>2016-10-15T19:09:50Z</time>
    </trkpt>
    <trkpt lat="28.299882" lon="83.821144">
      <ele>1803.749864</ele>
      <time>2016-10-15T19:10:13Z</time>
    </trkpt>
    <trkpt lat="28.299935" lon="83.821068">
      <ele>1806.668794</ele>
      <time>2016-10-15T19:10:49Z</time>
    </trkpt>
    <trkpt lat="28.299986" lon="83.820995">
      <ele>1809.718723</ele>
      <time>2016-10-15T19:11:12Z</time>
    </trkpt>
    <trkpt lat="28.300023" lon="83.820915">
      <ele>1812.637443</ele>
      <time>2016-10-15T19:11:39Z</time>
    </trkpt>
    <trkpt lat="28.300073" lon="83.820842">
      <ele>1815.574716</ele>
      <time>2016-10-15T19:12:05Z</time>
    </trkpt>
    <trkpt lat="28.300129" lon="83.820774">
      <ele>1818.483584</ele>
      <time>2016-10-15T19:12:29Z</time>
    </trkpt>
    <trkpt lat="28.300194" lon="83.820733">
      <ele>1821.607022</ele>
      <time>2016-10-15T19:12:46Z</time>
    </trkpt>
    <trkpt lat="28.300249" lon="83.820708">
      <ele>1863.806013</ele>
      <time>2016-10-15T19:17:06Z</time>
      <extensions>
        <pause>start</pause>
        <type>auto</type>
      </extensions>
    </trkpt>
    <trkpt lat="28.300513" lon="83.820745">
      <ele>1870.706702</ele>
      <time>2016-10-15T19:19:25Z</time>
      <extensions>
        <pause>end</pause>
        <type>manual</type>
      </extensions>
    </trkpt>
    <trkpt lat="28.300585" lon="83.820780">
      <ele>1836.266907</ele>
      <time>2016-10-15T19:19:48Z</time>
    </trkpt>
    <trkpt lat="28.300634" lon="83.820843">
      <ele>1839.695882</ele>
      <time>2016-10-15T19:20:20Z</time>
    </trkpt>
    <trkpt lat="28.300677" lon="83.820930">
      <ele>1843.325349</ele>
      <time>2016-10-15T19:20:30Z</time>
    </trkpt>
    <trkpt lat="28.300728" lon="83.821002">
      <ele>1849.144935</ele>
      <time>2016-10-15T19:20:40Z</time>
    </trkpt>
    <trkpt lat="28.300807" lon="83.821033">
      <ele>1853.610799</ele>
      <time>2016-10-15T19:20:54Z</time>
    </trkpt>
    <trkpt lat="28.300897" lon="83.821042">
      <ele>1858.167693</ele>
      <time>2016-10-15T19:21:10Z</time>
    </trkpt>
    <trkpt lat="28.300981" lon="83.821060">
      <ele>1862.451234</ele>
      <time>2016-10-15T19:21:27Z</time>
    </trkpt>
    <trkpt lat="28.301060" lon="83.821104">
      <ele>1866.354554</ele>
      <time>2016-10-15T19:21:46Z</time>
    </trkpt>
    <trkpt lat="28.301132" lon="83.821163">
      <ele>1869.965250</ele>
      <time>2016-10-15T19:22:06Z</time>
    </trkpt>
    <trkpt lat="28.301203" lon="83.821221">
      <ele>1873.421556</ele>
      <time>2016-10-15T19:22:26Z</time>
    </trkpt>
    <trkpt lat="28.301274" lon="83.821278">
      <ele>1876.655664</ele>
      <time>2016-10-15T19:22:46Z</time>
    </trkpt>
    <trkpt lat="28.301345" lon="83.821334">
      <ele>1879.837924</ele>
      <time>2016-10-15T19:23:09Z</time>
    </trkpt>
    <trkpt lat="28.301427" lon="83.821376">
      <ele>1882.610794</ele>
      <time>2016-10-15T19:23:26Z</time>
    </trkpt>
    <trkpt lat="28.301516" lon="83.821402">
      <ele>1885.932804</ele>
      <time>2016-10-15T19:23:37Z</time>
    </trkpt>
    <trkpt lat="28.301601" lon="83.821435">
      <ele>1887.901846</ele>
      <time>2016-10-15T19:23:49Z</time>
    </trkpt>
    <trkpt lat="28.301659" lon="83.821496">
      <ele>1889.175451</ele>
      <time>2016-10-15T19:24:21Z</time>
    </trkpt>
    <trkpt lat="28.301694" lon="83.821589">
      <ele>1890.435149</ele>
      <time>2016-10-15T19:24:46Z</time>
    </trkpt>
    <trkpt lat="28.301728" lon="83.821678">
      <ele>1892.529489</ele>
      <time>2016-10-15T19:25:03Z</time>
    </trkpt>
    <trkpt lat="28.301778" lon="83.821753">
      <ele>1893.644513</ele>
      <time>2016-10-15T19:25:26Z</time>
    </trkpt>
    <trkpt lat="28.301839" lon="83.821821">
      <ele>1895.697585</ele>
      <time>2016-10-15T19:25:46Z</time>
    </trkpt>
    <trkpt lat="28.301909" lon="83.821877">
      <ele>1897.887158</ele>
      <time>2016-10-15T19:26:04Z</time>
    </trkpt>
    <trkpt lat="28.301983" lon="83.821931">
      <ele>1900.218513</ele>
      <time>2016-10-15T19:26:13Z</time>
    </trkpt>
    <trkpt lat="28.302062" lon="83.821980">
      <ele>1902.612715</ele>
      <time>2016-10-15T19:26:27Z</time>
    </trkpt>
    <trkpt lat="28.302137" lon="83.822041">
      <ele>1905.206796</ele>
      <time>2016-10-15T19:26:38Z</time>
    </trkpt>
    <trkpt lat="28.302209" lon="83.822106">
      <ele>1907.850391</ele>
      <time>2016-10-15T19:26:52Z</time>
    </trkpt>
    <trkpt lat="28.302284" lon="83.822162">
      <ele>1910.457365</ele>
      <time>2016-10-15T19:27:09Z</time>
    </trkpt>
    <trkpt lat="28.302361" lon="83.822218">
      <ele>1912.858156</ele>
      <time>2016-10-15T19:27:28Z</time>
    </trkpt>
    <trkpt lat="28.302438" lon="83.822274">
      <ele>1915.146685</ele>
      <time>2016-10-15T19:27:49Z</time>
    </trkpt>
    <trkpt lat="28.302509" lon="83.822337">
      <ele>1917.410588</ele>
      <time>2016-10-15T19:28:18Z</time>
    </trkpt>
    <trkpt lat="28.302569" lon="83.822406">
      <ele>1919.695045</ele>
      <time>2016-10-15T19:28:38Z</time>
    </trkpt>
    <trkpt lat="28.302604" lon="83.822484">
      <ele>1921.799163</ele>
      <time>2016-10-15T19:29:02Z</time>
    </trkpt>
    <trkpt lat="28.302634" lon="83.822569">
      <ele>1923.786915</ele>
      <time>2016-10-15T19:29:28Z</time>
    </trkpt>
    <trkpt lat="28.302646" lon="83.822656">
      <ele>1925.808571</ele>
      <time>2016-10-15T19:30:02Z</time>
    </trkpt>
    <trkpt lat="28.302675" lon="83.822730">
      <ele>1926.718709</ele>
      <time>2016-10-15T19:30:26Z</time>
    </trkpt>
    <trkpt lat="28.302706" lon="83.822808">
      <ele>1928.762040</ele>
      <time>2016-10-15T19:34:14Z</time>
    </trkpt>
    <trkpt lat="28.302772" lon="83.822862">
      <ele>1930.736834</ele>
      <time>2016-10-15T19:34:28Z</time>
    </trkpt>
    <trkpt lat="28.302852" lon="83.822888">
      <ele>1932.796665</ele>
      <time>2016-10-15T19:34:47Z</time>
    </trkpt>
    <trkpt lat="28.302941" lon="83.822902">
      <ele>1935.156135</ele>
      <time>2016-10-15T19:35:01Z</time>
    </trkpt>
    <trkpt lat="28.303027" lon="83.822922">
      <ele>1937.799748</ele>
      <time>2016-10-15T19:35:14Z</time>
    </trkpt>
    <trkpt lat="28.303110" lon="83.822970">
      <ele>1942.871146</ele>
      <time>2016-10-15T19:35:31Z</time>
    </trkpt>
    <trkpt lat="28.303193" lon="83.823012">
      <ele>1946.729953</ele>
      <time>2016-10-15T19:35:47Z</time>
    </trkpt>
    <trkpt lat="28.303279" lon="83.823035">
      <ele>1950.527171</ele>
      <time>2016-10-15T19:35:59Z</time>
    </trkpt>
    <trkpt lat="28.303367" lon="83.823044">
      <ele>1954.220196</ele>
      <time>2016-10-15T19:36:18Z</time>
    </trkpt>
    <trkpt lat="28.303457" lon="83.823052">
      <ele>1957.748273</ele>
      <time>2016-10-15T19:36:35Z</time>
    </trkpt>
    <trkpt lat="28.303544" lon="83.823081">
      <ele>1960.989569</ele>
      <time>2016-10-15T19:36:52Z</time>
    </trkpt>
    <trkpt lat="28.303629" lon="83.823128">
      <ele>1964.039867</ele>
      <time>2016-10-15T19:37:08Z</time>
    </trkpt>
    <trkpt lat="28.303714" lon="83.823176">
      <ele>1966.948141</ele>
      <time>2016-10-15T19:37:20Z</time>
    </trkpt>
    <trkpt lat="28.303801" lon="83.823221">
      <ele>1969.600047</ele>
      <time>2016-10-15T19:37:32Z</time>
    </trkpt>
    <trkpt lat="28.303893" lon="83.823247">
      <ele>1972.115426</ele>
      <time>2016-10-15T19:37:42Z</time>
    </trkpt>
    <trkpt lat="28.303982" lon="83.823246">
      <ele>1973.649965</ele>
      <time>2016-10-15T19:37:55Z</time>
    </trkpt>
    <trkpt lat="28.304071" lon="83.823231">
      <ele>1975.210241</ele>
      <time>2016-10-15T19:38:08Z</time>
    </trkpt>
    <trkpt lat="28.304159" lon="83.823213">
      <ele>1977.464367</ele>
      <time>2016-10-15T19:38:21Z</time>
    </trkpt>
    <trkpt lat="28.304245" lon="83.823233">
      <ele>1978.861672</ele>
      <time>2016-10-15T19:38:33Z</time>
    </trkpt>
    <trkpt lat="28.304326" lon="83.823281">
      <ele>1980.310148</ele>
      <time>2016-10-15T19:39:29Z</time>
    </trkpt>
    <trkpt lat="28.304400" lon="83.823350">
      <ele>1981.854036</ele>
      <time>2016-10-15T19:39:43Z</time>
    </trkpt>
    <trkpt lat="28.304471" lon="83.823419">
      <ele>1983.471266</ele>
      <time>2016-10-15T19:39:54Z</time>
    </trkpt>
    <trkpt lat="28.304542" lon="83.823484">
      <ele>1984.899110</ele>
      <time>2016-10-15T19:40:07Z</time>
    </trkpt>
    <trkpt lat="28.304616" lon="83.823548">
      <ele>1986.093682</ele>
      <time>2016-10-15T19:40:23Z</time>
    </trkpt>
    <trkpt lat="28.304694" lon="83.823605">
      <ele>1987.159258</ele>
      <time>2016-10-15T19:40:34Z</time>
    </trkpt>
    <trkpt lat="28.304775" lon="83.823654">
      <ele>1988.284769</ele>
      <time>2016-10-15T19:40:47Z</time>
    </trkpt>
    <trkpt lat="28.304823" lon="83.823716">
      <ele>1989.478895</ele>
      <time>2016-10-15T19:40:59Z</time>
    </trkpt>
    <trkpt lat="28.304858" lon="83.823794">
      <ele>1990.035674</ele>
      <time>2016-10-15T19:41:15Z</time>
    </trkpt>
    <trkpt lat="28.304867" lon="83.823896">
      <ele>1991.335458</ele>
      <time>2016-10-15T19:41:24Z</time>
    </trkpt>
    <trkpt lat="28.304880" lon="83.824000">
      <ele>1992.720062</ele>
      <time>2016-10-15T19:41:38Z</time>
    </trkpt>
    <trkpt lat="28.304891" lon="83.824105">
      <ele>1994.052466</ele>
      <time>2016-10-15T19:41:50Z</time>
    </trkpt>
    <trkpt lat="28.304902" lon="83.824210">
      <ele>1995.283120</ele>
      <time>2016-10-15T19:42:03Z</time>
    </trkpt>
    <trkpt lat="28.304916" lon="83.824316">
      <ele>1996.239380</ele>
      <time>2016-10-15T19:42:13Z</time>
    </trkpt>
    <trkpt lat="28.304943" lon="83.824416">
      <ele>1997.190756</ele>
      <time>2016-10-15T19:42:25Z</time>
    </trkpt>
    <trkpt lat="28.304969" lon="83.824515">
      <ele>1998.378797</ele>
      <time>2016-10-15T19:42:36Z</time>
    </trkpt>
    <trkpt lat="28.304995" lon="83.824614">
      <ele>1999.371407</ele>
      <time>2016-10-15T19:42:48Z</time>
    </trkpt>
    <trkpt lat="28.305007" lon="83.824718">
      <ele>2000.202650</ele>
      <time>2016-10-15T19:43:02Z</time>
    </trkpt>
    <trkpt lat="28.305003" lon="83.824819">
      <ele>2000.912515</ele>
      <time>2016-10-15T19:43:16Z</time>
    </trkpt>
    <trkpt lat="28.304987" lon="83.824918">
      <ele>2001.590554</ele>
      <time>2016-10-15T19:43:28Z</time>
    </trkpt>
    <trkpt lat="28.304951" lon="83.825013">
      <ele>2002.260266</ele>
      <time>2016-10-15T19:43:37Z</time>
    </trkpt>
    <trkpt lat="28.304925" lon="83.825112">
      <ele>2002.991659</ele>
      <time>2016-10-15T19:43:47Z</time>
    </trkpt>
    <trkpt lat="28.304908" lon="83.825214">
      <ele>2003.747443</ele>
      <time>2016-10-15T19:44:01Z</time>
    </trkpt>
    <trkpt lat="28.304912" lon="83.825320">
      <ele>2004.716559</ele>
      <time>2016-10-15T19:44:14Z</time>
    </trkpt>
    <trkpt lat="28.304905" lon="83.825423">
      <ele>2005.752461</ele>
      <time>2016-10-15T19:44:26Z</time>
    </trkpt>
    <trkpt lat="28.304887" lon="83.825522">
      <ele>2006.671815</ele>
      <time>2016-10-15T19:44:38Z</time>
    </trkpt>
    <trkpt lat="28.304848" lon="83.825618">
      <ele>2007.723971</ele>
      <time>2016-10-15T19:44:48Z</time>
    </trkpt>
    <trkpt lat="28.304803" lon="83.825710">
      <ele>2008.776696</ele>
      <time>2016-10-15T19:45:03Z</time>
    </trkpt>
    <trkpt lat="28.304739" lon="83.825761">
      <ele>2009.746853</ele>
      <time>2016-10-15T19:45:22Z</time>
    </trkpt>
    <trkpt lat="28.304655" lon="83.825773">
      <ele>2010.638802</ele>
      <time>2016-10-15T19:45:40Z</time>
    </trkpt>
    <trkpt lat="28.304562" lon="83.825773">
      <ele>2011.543991</ele>
      <time>2016-10-15T19:45:56Z</time>
    </trkpt>
    <trkpt lat="28.304474" lon="83.825795">
      <ele>2012.384489</ele>
      <time>2016-10-15T19:46:08Z</time>
    </trkpt>
    <trkpt lat="28.304401" lon="83.825854">
      <ele>2013.238490</ele>
      <time>2016-10-15T19:46:20Z</time>
    </trkpt>
    <trkpt lat="28.304351" lon="83.825932">
      <ele>2014.060554</ele>
      <time>2016-10-15T19:46:32Z</time>
    </trkpt>
    <trkpt lat="28.304307" lon="83.826021">
      <ele>2014.939356</ele>
      <time>2016-10-15T19:46:45Z</time>
    </trkpt>
    <trkpt lat="28.304263" lon="83.826112">
      <ele>2015.963237</ele>
      <time>2016-10-15T19:46:57Z</time>
    </trkpt>
    <trkpt lat="28.304220" lon="83.826206">
      <ele>2017.012701</ele>
      <time>2016-10-15T19:47:07Z</time>
    </trkpt>
    <trkpt lat="28.304204" lon="83.826309">
      <ele>2018.068184</ele>
      <time>2016-10-15T19:47:17Z</time>
    </trkpt>
    <trkpt lat="28.304211" lon="83.826413">
      <ele>2019.209053</ele>
      <time>2016-10-15T19:47:26Z</time>
    </trkpt>
    <trkpt lat="28.304205" lon="83.826516">
      <ele>2020.432045</ele>
      <time>2016-10-15T19:47:38Z</time>
    </trkpt>
    <trkpt lat="28.304183" lon="83.826616">
      <ele>2021.587682</ele>
      <time>2016-10-15T19:47:49Z</time>
    </trkpt>
    <trkpt lat="28.304134" lon="83.826709">
      <ele>2022.650150</ele>
      <time>2016-10-15T19:47:59Z</time>
    </trkpt>
    <trkpt lat="28.304087" lon="83.826797">
      <ele>2023.643006</ele>
      <time>2016-10-15T19:48:17Z</time>
    </trkpt>
    <trkpt lat="28.304029" lon="83.826878">
      <ele>2024.586825</ele>
      <time>2016-10-15T19:48:34Z</time>
    </trkpt>
    <trkpt lat="28.303971" lon="83.826962">
      <ele>2025.474929</ele>
      <time>2016-10-15T19:48:49Z</time>
    </trkpt>
    <trkpt lat="28.303901" lon="83.827034">
      <ele>2026.290147</ele>
      <time>2016-10-15T19:49:02Z</time>
    </trkpt>
    <trkpt lat="28.303833" lon="83.827110">
      <ele>2027.158342</ele>
      <time>2016-10-15T19:49:14Z</time>
    </trkpt>
    <trkpt lat="28.303757" lon="83.827172">
      <ele>2028.123885</ele>
      <time>2016-10-15T19:49:24Z</time>
    </trkpt>
    <trkpt lat="28.303683" lon="83.827245">
      <ele>2029.201017</ele>
      <time>2016-10-15T19:49:33Z</time>
    </trkpt>
    <trkpt lat="28.303623" lon="83.827323">
      <ele>2030.216101</ele>
      <time>2016-10-15T19:49:45Z</time>
    </trkpt>
    <trkpt lat="28.303611" lon="83.827418">
      <ele>2031.127788</ele>
      <time>2016-10-15T19:50:42Z</time>
    </trkpt>
    <trkpt lat="28.303635" lon="83.827518">
      <ele>2032.066709</ele>
      <time>2016-10-15T19:50:54Z</time>
    </trkpt>
    <trkpt lat="28.303673" lon="83.827620">
      <ele>2032.887712</ele>
      <time>2016-10-15T19:51:07Z</time>
    </trkpt>
    <trkpt lat="28.303710" lon="83.827723">
      <ele>2033.719850</ele>
      <time>2016-10-15T19:51:17Z</time>
    </trkpt>
    <trkpt lat="28.303758" lon="83.827817">
      <ele>2034.542576</ele>
      <time>2016-10-15T19:51:27Z</time>
    </trkpt>
    <trkpt lat="28.303815" lon="83.827905">
      <ele>2035.408635</ele>
      <time>2016-10-15T19:51:37Z</time>
    </trkpt>
    <trkpt lat="28.303869" lon="83.827994">
      <ele>2036.395335</ele>
      <time>2016-10-15T19:51:51Z</time>
    </trkpt>
    <trkpt lat="28.303926" lon="83.828076">
      <ele>2036.736785</ele>
      <time>2016-10-15T19:52:02Z</time>
    </trkpt>
    <trkpt lat="28.303993" lon="83.828142">
      <ele>2037.170228</ele>
      <time>2016-10-15T19:52:12Z</time>
    </trkpt>
    <trkpt lat="28.304066" lon="83.828201">
      <ele>2037.488411</ele>
      <time>2016-10-15T19:52:26Z</time>
    </trkpt>
    <trkpt lat="28.304144" lon="83.828249">
      <ele>2037.821298</ele>
      <time>2016-10-15T19:52:39Z</time>
    </trkpt>
    <trkpt lat="28.304226" lon="83.828274">
      <ele>2038.226247</ele>
      <time>2016-10-15T19:52:51Z</time>
    </trkpt>
    <trkpt lat="28.304322" lon="83.828259">
      <ele>2038.711324</ele>
      <time>2016-10-15T19:53:01Z</time>
    </trkpt>
    <trkpt lat="28.304416" lon="83.828223">
      <ele>2039.285929</ele>
      <time>2016-10-15T19:53:12Z</time>
    </trkpt>
    <trkpt lat="28.304509" lon="83.828199">
      <ele>2039.857413</ele>
      <time>2016-10-15T19:54:47Z</time>
    </trkpt>
    <trkpt lat="28.304599" lon="83.828188">
      <ele>2040.391500</ele>
      <time>2016-10-15T19:57:31Z</time>
    </trkpt>
    <trkpt lat="28.304689" lon="83.828200">
      <ele>2040.918252</ele>
      <time>2016-10-15T19:57:43Z</time>
    </trkpt>
    <trkpt lat="28.304777" lon="83.828222">
      <ele>2041.500604</ele>
      <time>2016-10-15T19:57:58Z</time>
    </trkpt>
    <trkpt lat="28.304859" lon="83.828264">
      <ele>2042.095441</ele>
      <time>2016-10-15T19:58:22Z</time>
    </trkpt>
    <trkpt lat="28.304935" lon="83.828322">
      <ele>2042.895228</ele>
      <time>2016-10-15T20:00:15Z</time>
    </trkpt>
    <trkpt lat="28.305009" lon="83.828387">
      <ele>2043.644904</ele>
      <time>2016-10-15T20:00:38Z</time>
    </trkpt>
    <trkpt lat="28.305082" lon="83.828456">
      <ele>2044.297394</ele>
      <time>2016-10-15T20:00:52Z</time>
    </trkpt>
    <trkpt lat="28.305160" lon="83.828515">
      <ele>2044.908863</ele>
      <time>2016-10-15T20:01:04Z</time>
    </trkpt>
    <trkpt lat="28.305243" lon="83.828550">
      <ele>2045.458143</ele>
      <time>2016-10-15T20:01:22Z</time>
    </trkpt>
    <trkpt lat="28.305331" lon="83.828554">
      <ele>2045.827070</ele>
      <time>2016-10-15T20:01:38Z</time>
    </trkpt>
    <trkpt lat="28.305420" lon="83.828543">
      <ele>2045.952523</ele>
      <time>2016-10-15T20:01:55Z</time>
    </trkpt>
    <trkpt lat="28.305511" lon="83.828538">
      <ele>2045.961786</ele>
      <time>2016-10-15T20:02:10Z</time>
    </trkpt>
    <trkpt lat="28.305605" lon="83.828542">
      <ele>2045.836819</ele>
      <time>2016-10-15T20:02:20Z</time>
    </trkpt>
    <trkpt lat="28.305698" lon="83.828535">
      <ele>2045.414420</ele>
      <time>2016-10-15T20:02:31Z</time>
    </trkpt>
    <trkpt lat="28.305786" lon="83.828505">
      <ele>2044.480919</ele>
      <time>2016-10-15T20:03:23Z</time>
    </trkpt>
    <trkpt lat="28.305872" lon="83.828483">
      <ele>2043.303600</ele>
      <time>2016-10-15T20:03:34Z</time>
    </trkpt>
    <trkpt lat="28.305960" lon="83.828478">
      <ele>2041.909976</ele>
      <time>2016-10-15T20:03:48Z</time>
    </trkpt>
    <trkpt lat="28.306055" lon="83.828495">
      <ele>2040.405759</ele>
      <time>2016-10-15T20:04:01Z</time>
    </trkpt>
    <trkpt lat="28.306154" lon="83.828511">
      <ele>2038.739465</ele>
      <time>2016-10-15T20:04:11Z</time>
    </trkpt>
    <trkpt lat="28.306251" lon="83.828513">
      <ele>2036.044972</ele>
      <time>2016-10-15T20:04:19Z</time>
    </trkpt>
    <trkpt lat="28.306347" lon="83.828521">
      <ele>2034.143396</ele>
      <time>2016-10-15T20:04:28Z</time>
    </trkpt>
    <trkpt lat="28.306439" lon="83.828536">
      <ele>2032.151026</ele>
      <time>2016-10-15T20:04:39Z</time>
    </trkpt>
    <trkpt lat="28.306527" lon="83.828544">
      <ele>2030.105877</ele>
      <time>2016-10-15T20:04:49Z</time>
    </trkpt>
    <trkpt lat="28.306600" lon="83.828512">
      <ele>2029.019533</ele>
      <time>2016-10-15T20:05:01Z</time>
    </trkpt>
    <trkpt lat="28.306669" lon="83.828442">
      <ele>2027.286696</ele>
      <time>2016-10-15T20:05:14Z</time>
    </trkpt>
    <trkpt lat="28.306738" lon="83.828373">
      <ele>2025.775426</ele>
      <time>2016-10-15T20:05:24Z</time>
    </trkpt>
    <trkpt lat="28.306824" lon="83.828330">
      <ele>2023.921088</ele>
      <time>2016-10-15T20:05:33Z</time>
    </trkpt>
    <trkpt lat="28.306913" lon="83.828301">
      <ele>2022.443877</ele>
      <time>2016-10-15T20:05:44Z</time>
    </trkpt>
    <trkpt lat="28.307002" lon="83.828269">
      <ele>2020.825637</ele>
      <time>2016-10-15T20:05:53Z</time>
    </trkpt>
    <trkpt lat="28.307077" lon="83.828209">
      <ele>2019.283981</ele>
      <time>2016-10-15T20:06:02Z</time>
    </trkpt>
    <trkpt lat="28.307151" lon="83.828140">
      <ele>2017.870553</ele>
      <time>2016-10-15T20:06:15Z</time>
    </trkpt>
    <trkpt lat="28.307231" lon="83.828079">
      <ele>2016.610310</ele>
      <time>2016-10-15T20:06:25Z</time>
    </trkpt>
    <trkpt lat="28.307319" lon="83.828032">
      <ele>2015.340885</ele>
      <time>2016-10-15T20:06:33Z</time>
    </trkpt>
    <trkpt lat="28.307403" lon="83.827985">
      <ele>2014.066606</ele>
      <time>2016-10-15T20:06:43Z</time>
    </trkpt>
    <trkpt lat="28.307483" lon="83.827930">
      <ele>2012.547148</ele>
      <time>2016-10-15T20:06:52Z</time>
    </trkpt>
    <trkpt lat="28.307567" lon="83.827884">
      <ele>2010.932813</ele>
      <time>2016-10-15T20:07:08Z</time>
    </trkpt>
    <trkpt lat="28.307654" lon="83.827840">
      <ele>2009.277008</ele>
      <time>2016-10-15T20:07:19Z</time>
    </trkpt>
    <trkpt lat="28.307745" lon="83.827808">
      <ele>2007.642057</ele>
      <time>2016-10-15T20:07:36Z</time>
    </trkpt>
    <trkpt lat="28.307836" lon="83.827781">
      <ele>2006.209539</ele>
      <time>2016-10-15T20:07:44Z</time>
    </trkpt>
    <trkpt lat="28.307930" lon="83.827771">
      <ele>2004.844257</ele>
      <time>2016-10-15T20:07:53Z</time>
    </trkpt>
    <trkpt lat="28.308024" lon="83.827765">
      <ele>2003.461113</ele>
      <time>2016-10-15T20:08:05Z</time>
    </trkpt>
    <trkpt lat="28.308115" lon="83.827779">
      <ele>2001.974269</ele>
      <time>2016-10-15T20:08:18Z</time>
    </trkpt>
    <trkpt lat="28.308197" lon="83.827820">
      <ele>2000.551956</ele>
      <time>2016-10-15T20:08:29Z</time>
    </trkpt>
    <trkpt lat="28.308280" lon="83.827870">
      <ele>1999.152983</ele>
      <time>2016-10-15T20:08:38Z</time>
    </trkpt>
    <trkpt lat="28.308367" lon="83.827902">
      <ele>1997.794023</ele>
      <time>2016-10-15T20:08:48Z</time>
    </trkpt>
    <trkpt lat="28.308466" lon="83.827901">
      <ele>1996.606630</ele>
      <time>2016-10-15T20:08:59Z</time>
    </trkpt>
    <trkpt lat="28.308562" lon="83.827883">
      <ele>1995.508913</ele>
      <time>2016-10-15T20:09:10Z</time>
    </trkpt>
    <trkpt lat="28.308657" lon="83.827871">
      <ele>1994.397607</ele>
      <time>2016-10-15T20:09:16Z</time>
    </trkpt>
    <trkpt lat="28.308747" lon="83.827877">
      <ele>1993.312313</ele>
      <time>2016-10-15T20:09:34Z</time>
    </trkpt>
    <trkpt lat="28.308836" lon="83.827910">
      <ele>1992.242230</ele>
      <time>2016-10-15T20:09:47Z</time>
    </trkpt>
    <trkpt lat="28.308920" lon="83.827930">
      <ele>1991.319097</ele>
      <time>2016-10-15T20:10:00Z</time>
    </trkpt>
    <trkpt lat="28.309007" lon="83.827938">
      <ele>1990.460993</ele>
      <time>2016-10-15T20:10:22Z</time>
    </trkpt>
    <trkpt lat="28.309094" lon="83.827923">
      <ele>1989.523351</ele>
      <time>2016-10-15T20:10:35Z</time>
    </trkpt>
    <trkpt lat="28.309188" lon="83.827911">
      <ele>1988.502903</ele>
      <time>2016-10-15T20:10:51Z</time>
    </trkpt>
    <trkpt lat="28.309282" lon="83.827912">
      <ele>1987.442619</ele>
      <time>2016-10-15T20:11:02Z</time>
    </trkpt>
    <trkpt lat="28.309379" lon="83.827903">
      <ele>1986.174150</ele>
      <time>2016-10-15T20:11:19Z</time>
    </trkpt>
    <trkpt lat="28.309473" lon="83.827907">
      <ele>1984.780913</ele>
      <time>2016-10-15T20:11:29Z</time>
    </trkpt>
    <trkpt lat="28.309566" lon="83.827908">
      <ele>1983.236035</ele>
      <time>2016-10-15T20:11:39Z</time>
    </trkpt>
    <trkpt lat="28.309656" lon="83.827941">
      <ele>1981.761805</ele>
      <time>2016-10-15T20:11:50Z</time>
    </trkpt>
    <trkpt lat="28.309744" lon="83.827974">
      <ele>1980.392779</ele>
      <time>2016-10-15T20:12:02Z</time>
    </trkpt>
    <trkpt lat="28.309825" lon="83.828023">
      <ele>1979.071124</ele>
      <time>2016-10-15T20:12:18Z</time>
    </trkpt>
    <trkpt lat="28.309899" lon="83.828079">
      <ele>1977.650553</ele>
      <time>2016-10-15T20:12:30Z</time>
    </trkpt>
    <trkpt lat="28.309973" lon="83.828140">
      <ele>1976.731874</ele>
      <time>2016-10-15T20:12:54Z</time>
    </trkpt>
    <trkpt lat="28.310053" lon="83.828184">
      <ele>1975.324894</ele>
      <time>2016-10-15T20:13:12Z</time>
    </trkpt>
    <trkpt lat="28.310142" lon="83.828194">
      <ele>1973.969986</ele>
      <time>2016-10-15T20:13:23Z</time>
    </trkpt>
    <trkpt lat="28.310237" lon="83.828182">
      <ele>1972.899737</ele>
      <time>2016-10-15T20:13:37Z</time>
    </trkpt>
    <trkpt lat="28.310331" lon="83.828179">
      <ele>1972.099798</ele>
      <time>2016-10-15T20:13:51Z</time>
    </trkpt>
    <trkpt lat="28.310427" lon="83.828191">
      <ele>1971.575594</ele>
      <time>2016-10-15T20:14:06Z</time>
    </trkpt>
    <trkpt lat="28.310514" lon="83.828232">
      <ele>1971.449122</ele>
      <time>2016-10-15T20:14:15Z</time>
    </trkpt>
    <trkpt lat="28.310599" lon="83.828275">
      <ele>1971.300057</ele>
      <time>2016-10-15T20:14:28Z</time>
    </trkpt>
    <trkpt lat="28.310690" lon="83.828314">
      <ele>1970.960797</ele>
      <time>2016-10-15T20:14:38Z</time>
    </trkpt>
    <trkpt lat="28.310786" lon="83.828340">
      <ele>1970.707076</ele>
      <time>2016-10-15T20:14:55Z</time>
    </trkpt>
    <trkpt lat="28.310877" lon="83.828383">
      <ele>1970.197210</ele>
      <time>2016-10-15T20:15:04Z</time>
    </trkpt>
    <trkpt lat="28.310947" lon="83.828456">
      <ele>1969.998105</ele>
      <time>2016-10-15T20:15:14Z</time>
    </trkpt>
    <trkpt lat="28.311018" lon="83.828531">
      <ele>1969.890117</ele>
      <time>2016-10-15T20:15:29Z</time>
    </trkpt>
    <trkpt lat="28.311081" lon="83.828603">
      <ele>1969.822306</ele>
      <time>2016-10-15T20:15:41Z</time>
    </trkpt>
    <trkpt lat="28.311148" lon="83.828670">
      <ele>1969.479441</ele>
      <time>2016-10-15T20:15:52Z</time>
    </trkpt>
    <trkpt lat="28.311211" lon="83.828745">
      <ele>1969.070767</ele>
      <time>2016-10-15T20:16:05Z</time>
    </trkpt>
    <trkpt lat="28.311278" lon="83.828818">
      <ele>1968.452867</ele>
      <time>2016-10-15T20:16:13Z</time>
    </trkpt>
    <trkpt lat="28.311352" lon="83.828887">
      <ele>1967.513732</ele>
      <time>2016-10-15T20:16:24Z</time>
    </trkpt>
    <trkpt lat="28.311422" lon="83.828959">
      <ele>1966.871262</ele>
      <time>2016-10-15T20:16:38Z</time>
    </trkpt>
    <trkpt lat="28.311499" lon="83.829018">
      <ele>1966.180654</ele>
      <time>2016-10-15T20:16:49Z</time>
    </trkpt>
    <trkpt lat="28.311570" lon="83.829087">
      <ele>1965.551670</ele>
      <time>2016-10-15T20:17:01Z</time>
    </trkpt>
    <trkpt lat="28.311638" lon="83.829158">
      <ele>1964.964684</ele>
      <time>2016-10-15T20:17:17Z</time>
    </trkpt>
    <trkpt lat="28.311704" lon="83.829240">
      <ele>1964.276297</ele>
      <time>2016-10-15T20:17:24Z</time>
    </trkpt>
    <trkpt lat="28.311779" lon="83.829304">
      <ele>1963.544238</ele>
      <time>2016-10-15T20:17:34Z</time>
    </trkpt>
    <trkpt lat="28.311859" lon="83.829366">
      <ele>1962.960383</ele>
      <time>2016-10-15T20:17:41Z</time>
    </trkpt>
    <trkpt lat="28.311943" lon="83.829407">
      <ele>1962.666498</ele>
      <time>2016-10-15T20:17:59Z</time>
    </trkpt>
    <trkpt lat="28.312011" lon="83.829475">
      <ele>1962.008605</ele>
      <time>2016-10-15T20:18:07Z</time>
    </trkpt>
    <trkpt lat="28.312076" lon="83.829544">
      <ele>1961.717229</ele>
      <time>2016-10-15T20:18:18Z</time>
    </trkpt>
    <trkpt lat="28.312135" lon="83.829631">
      <ele>1961.272119</ele>
      <time>2016-10-15T20:18:24Z</time>
    </trkpt>
    <trkpt lat="28.312214" lon="83.829683">
      <ele>1960.874790</ele>
      <time>2016-10-15T20:18:35Z</time>
    </trkpt>
    <trkpt lat="28.312303" lon="83.829712">
      <ele>1960.615056</ele>
      <time>2016-10-15T20:18:40Z</time>
    </trkpt>
    <trkpt lat="28.312393" lon="83.829734">
      <ele>1960.542477</ele>
      <time>2016-10-15T20:18:56Z</time>
    </trkpt>
    <trkpt lat="28.312471" lon="83.829775">
      <ele>1960.611868</ele>
      <time>2016-10-15T20:19:24Z</time>
    </trkpt>
    <trkpt lat="28.312526" lon="83.829850">
      <ele>1960.994535</ele>
      <time>2016-10-15T20:19:42Z</time>
    </trkpt>
    <trkpt lat="28.312563" lon="83.829947">
      <ele>1961.219974</ele>
      <time>2016-10-15T20:19:57Z</time>
    </trkpt>
    <trkpt lat="28.312608" lon="83.830035">
      <ele>1961.469070</ele>
      <time>2016-10-15T20:20:12Z</time>
    </trkpt>
    <trkpt lat="28.312669" lon="83.830103">
      <ele>1961.570211</ele>
      <time>2016-10-15T20:20:31Z</time>
    </trkpt>
    <trkpt lat="28.312751" lon="83.830144">
      <ele>1962.257129</ele>
      <time>2016-10-15T20:20:53Z</time>
    </trkpt>
    <trkpt lat="28.312834" lon="83.830184">
      <ele>1963.285841</ele>
      <time>2016-10-15T20:21:04Z</time>
    </trkpt>
    <trkpt lat="28.312922" lon="83.830216">
      <ele>1964.523459</ele>
      <time>2016-10-15T20:21:18Z</time>
    </trkpt>
    <trkpt lat="28.313012" lon="83.830239">
      <ele>1965.945720</ele>
      <time>2016-10-15T20:21:30Z</time>
    </trkpt>
    <trkpt lat="28.313106" lon="83.830249">
      <ele>1967.534737</ele>
      <time>2016-10-15T20:21:43Z</time>
    </trkpt>
    <trkpt lat="28.313205" lon="83.830260">
      <ele>1969.398795</ele>
      <time>2016-10-15T20:21:54Z</time>
    </trkpt>
    <trkpt lat="28.313299" lon="83.830286">
      <ele>1971.320431</ele>
      <time>2016-10-15T20:22:08Z</time>
    </trkpt>
    <trkpt lat="28.313390" lon="83.830327">
      <ele>1973.275790</ele>
      <time>2016-10-15T20:22:20Z</time>
    </trkpt>
    <trkpt lat="28.313474" lon="83.830370">
      <ele>1975.224806</ele>
      <time>2016-10-15T20:22:32Z</time>
    </trkpt>
    <trkpt lat="28.313563" lon="83.830400">
      <ele>1977.194437</ele>
      <time>2016-10-15T20:22:43Z</time>
    </trkpt>
    <trkpt lat="28.313654" lon="83.830419">
      <ele>1978.706094</ele>
      <time>2016-10-15T20:22:54Z</time>
    </trkpt>
    <trkpt lat="28.313745" lon="83.830437">
      <ele>1979.907386</ele>
      <time>2016-10-15T20:23:06Z</time>
    </trkpt>
    <trkpt lat="28.313834" lon="83.830467">
      <ele>1980.993647</ele>
      <time>2016-10-15T20:23:24Z</time>
    </trkpt>
    <trkpt lat="28.313925" lon="83.830487">
      <ele>1981.855006</ele>
      <time>2016-10-15T20:23:36Z</time>
    </trkpt>
    <trkpt lat="28.314020" lon="83.830497">
      <ele>1982.422557</ele>
      <time>2016-10-15T20:23:47Z</time>
    </trkpt>
    <trkpt lat="28.314113" lon="83.830473">
      <ele>1982.602001</ele>
      <time>2016-10-15T20:23:59Z</time>
    </trkpt>
    <trkpt lat="28.314202" lon="83.830442">
      <ele>1982.740270</ele>
      <time>2016-10-15T20:24:09Z</time>
    </trkpt>
    <trkpt lat="28.314292" lon="83.830407">
      <ele>1982.907577</ele>
      <time>2016-10-15T20:24:20Z</time>
    </trkpt>
    <trkpt lat="28.314387" lon="83.830404">
      <ele>1982.958560</ele>
      <time>2016-10-15T20:24:32Z</time>
    </trkpt>
    <trkpt lat="28.314488" lon="83.830415">
      <ele>1982.985387</ele>
      <time>2016-10-15T20:24:40Z</time>
    </trkpt>
    <trkpt lat="28.314584" lon="83.830441">
      <ele>1983.028864</ele>
      <time>2016-10-15T20:24:49Z</time>
    </trkpt>
    <trkpt lat="28.314676" lon="83.830469">
      <ele>1983.030083</ele>
      <time>2016-10-15T20:24:59Z</time>
    </trkpt>
    <trkpt lat="28.314766" lon="83.830506">
      <ele>1982.995787</ele>
      <time>2016-10-15T20:25:07Z</time>
    </trkpt>
    <trkpt lat="28.314857" lon="83.830519">
      <ele>1983.022064</ele>
      <time>2016-10-15T20:25:17Z</time>
    </trkpt>
    <trkpt lat="28.314951" lon="83.830507">
      <ele>1983.059254</ele>
      <time>2016-10-15T20:25:31Z</time>
    </trkpt>
    <trkpt lat="28.315036" lon="83.830466">
      <ele>1983.071732</ele>
      <time>2016-10-15T20:25:43Z</time>
    </trkpt>
    <trkpt lat="28.315116" lon="83.830409">
      <ele>1983.047010</ele>
      <time>2016-10-15T20:25:52Z</time>
    </trkpt>
    <trkpt lat="28.315192" lon="83.830352">
      <ele>1982.935105</ele>
      <time>2016-10-15T20:26:01Z</time>
    </trkpt>
    <trkpt lat="28.315275" lon="83.830320">
      <ele>1983.015150</ele>
      <time>2016-10-15T20:26:20Z</time>
    </trkpt>
    <trkpt lat="28.315370" lon="83.830308">
      <ele>1983.225693</ele>
      <time>2016-10-15T20:26:30Z</time>
    </trkpt>
    <trkpt lat="28.315472" lon="83.830298">
      <ele>1983.249245</ele>
      <time>2016-10-15T20:26:39Z</time>
    </trkpt>
    <trkpt lat="28.315572" lon="83.830277">
      <ele>1983.218522</ele>
      <time>2016-10-15T20:26:46Z</time>
    </trkpt>
    <trkpt lat="28.315667" lon="83.830260">
      <ele>1983.069509</ele>
      <time>2016-10-15T20:27:04Z</time>
    </trkpt>
    <trkpt lat="28.315760" lon="83.830247">
      <ele>1982.704074</ele>
      <time>2016-10-15T20:27:24Z</time>
    </trkpt>
    <trkpt lat="28.315855" lon="83.830249">
      <ele>1982.185261</ele>
      <time>2016-10-15T20:27:39Z</time>
    </trkpt>
    <trkpt lat="28.315950" lon="83.830248">
      <ele>1981.688760</ele>
      <time>2016-10-15T20:27:54Z</time>
    </trkpt>
    <trkpt lat="28.316044" lon="83.830254">
      <ele>1981.448065</ele>
      <time>2016-10-15T20:28:12Z</time>
    </trkpt>
    <trkpt lat="28.316135" lon="83.830239">
      <ele>1981.372788</ele>
      <time>2016-10-15T20:28:23Z</time>
    </trkpt>
    <trkpt lat="28.316225" lon="83.830225">
      <ele>1981.398862</ele>
      <time>2016-10-15T20:28:34Z</time>
    </trkpt>
    <trkpt lat="28.316314" lon="83.830203">
      <ele>1981.539735</ele>
      <time>2016-10-15T20:28:45Z</time>
    </trkpt>
    <trkpt lat="28.316405" lon="83.830194">
      <ele>1981.986759</ele>
      <time>2016-10-15T20:28:57Z</time>
    </trkpt>
    <trkpt lat="28.316498" lon="83.830185">
      <ele>1982.440894</ele>
      <time>2016-10-15T20:29:09Z</time>
    </trkpt>
    <trkpt lat="28.316591" lon="83.830179">
      <ele>1983.087315</ele>
      <time>2016-10-15T20:29:20Z</time>
    </trkpt>
    <trkpt lat="28.316683" lon="83.830160">
      <ele>1983.993107</ele>
      <time>2016-10-15T20:29:33Z</time>
    </trkpt>
    <trkpt lat="28.316774" lon="83.830136">
      <ele>1985.153269</ele>
      <time>2016-10-15T20:29:43Z</time>
    </trkpt>
    <trkpt lat="28.316863" lon="83.830106">
      <ele>1986.414861</ele>
      <time>2016-10-15T20:29:58Z</time>
    </trkpt>
    <trkpt lat="28.316953" lon="83.830081">
      <ele>1987.663946</ele>
      <time>2016-10-15T20:30:09Z</time>
    </trkpt>
    <trkpt lat="28.317046" lon="83.830065">
      <ele>1988.697326</ele>
      <time>2016-10-15T20:30:17Z</time>
    </trkpt>
    <trkpt lat="28.317141" lon="83.830053">
      <ele>1989.327189</ele>
      <time>2016-10-15T20:30:27Z</time>
    </trkpt>
    <trkpt lat="28.317239" lon="83.830041">
      <ele>1990.291010</ele>
      <time>2016-10-15T20:30:39Z</time>
    </trkpt>
    <trkpt lat="28.317336" lon="83.830031">
      <ele>1990.692075</ele>
      <time>2016-10-15T20:31:02Z</time>
    </trkpt>
    <trkpt lat="28.317432" lon="83.830012">
      <ele>1991.312170</ele>
      <time>2016-10-15T20:31:12Z</time>
    </trkpt>
    <trkpt lat="28.317522" lon="83.829990">
      <ele>1991.622313</ele>
      <time>2016-10-15T20:31:22Z</time>
    </trkpt>
    <trkpt lat="28.317611" lon="83.829954">
      <ele>1992.393696</ele>
      <time>2016-10-15T20:31:32Z</time>
    </trkpt>
    <trkpt lat="28.317699" lon="83.829919">
      <ele>1992.550563</ele>
      <time>2016-10-15T20:31:46Z</time>
    </trkpt>
    <trkpt lat="28.317790" lon="83.829887">
      <ele>1993.380507</ele>
      <time>2016-10-15T20:31:57Z</time>
    </trkpt>
    <trkpt lat="28.317883" lon="83.829870">
      <ele>1993.997433</ele>
      <time>2016-10-15T20:32:11Z</time>
    </trkpt>
    <trkpt lat="28.317978" lon="83.829862">
      <ele>1994.614695</ele>
      <time>2016-10-15T20:32:25Z</time>
    </trkpt>
    <trkpt lat="28.318071" lon="83.829871">
      <ele>1995.322651</ele>
      <time>2016-10-15T20:32:36Z</time>
    </trkpt>
    <trkpt lat="28.318164" lon="83.829895">
      <ele>1996.092187</ele>
      <time>2016-10-15T20:32:47Z</time>
    </trkpt>
    <trkpt lat="28.318250" lon="83.829942">
      <ele>1996.928889</ele>
      <time>2016-10-15T20:33:01Z</time>
    </trkpt>
    <trkpt lat="28.318336" lon="83.829992">
      <ele>1997.813186</ele>
      <time>2016-10-15T20:33:10Z</time>
    </trkpt>
    <trkpt lat="28.318421" lon="83.830017">
      <ele>1998.762940</ele>
      <time>2016-10-15T20:33:20Z</time>
    </trkpt>
    <trkpt lat="28.318513" lon="83.830028">
      <ele>1999.687958</ele>
      <time>2016-10-15T20:33:33Z</time>
    </trkpt>
    <trkpt lat="28.318603" lon="83.830040">
      <ele>2000.415422</ele>
      <time>2016-10-15T20:33:40Z</time>
    </trkpt>
    <trkpt lat="28.318689" lon="83.830083">
      <ele>2001.105296</ele>
      <time>2016-10-15T20:33:53Z</time>
    </trkpt>
    <trkpt lat="28.318777" lon="83.830125">
      <ele>2001.802117</ele>
      <time>2016-10-15T20:34:06Z</time>
    </trkpt>
    <trkpt lat="28.318866" lon="83.830162">
      <ele>2002.165898</ele>
      <time>2016-10-15T20:34:17Z</time>
    </trkpt>
    <trkpt lat="28.318961" lon="83.830174">
      <ele>2002.974596</ele>
      <time>2016-10-15T20:34:29Z</time>
    </trkpt>
    <trkpt lat="28.319053" lon="83.830173">
      <ele>2003.517639</ele>
      <time>2016-10-15T20:34:47Z</time>
    </trkpt>
    <trkpt lat="28.319146" lon="83.830158">
      <ele>2004.022675</ele>
      <time>2016-10-15T20:35:01Z</time>
    </trkpt>
    <trkpt lat="28.319240" lon="83.830140">
      <ele>2004.468555</ele>
      <time>2016-10-15T20:35:13Z</time>
    </trkpt>
    <trkpt lat="28.319331" lon="83.830111">
      <ele>2004.951575</ele>
      <time>2016-10-15T20:35:24Z</time>
    </trkpt>
    <trkpt lat="28.319415" lon="83.830068">
      <ele>2005.543444</ele>
      <time>2016-10-15T20:35:36Z</time>
    </trkpt>
    <trkpt lat="28.319489" lon="83.830013">
      <ele>2006.147640</ele>
      <time>2016-10-15T20:35:50Z</time>
    </trkpt>
    <trkpt lat="28.319563" lon="83.829967">
      <ele>2006.366455</ele>
      <time>2016-10-15T20:36:12Z</time>
    </trkpt>
    <trkpt lat="28.319643" lon="83.829960">
      <ele>2007.111708</ele>
      <time>2016-10-15T20:36:32Z</time>
    </trkpt>
    <trkpt lat="28.319726" lon="83.829991">
      <ele>2007.848806</ele>
      <time>2016-10-15T20:36:46Z</time>
    </trkpt>
    <trkpt lat="28.319808" lon="83.830043">
      <ele>2008.673263</ele>
      <time>2016-10-15T20:37:05Z</time>
    </trkpt>
    <trkpt lat="28.319890" lon="83.830088">
      <ele>2009.641326</ele>
      <time>2016-10-15T20:37:21Z</time>
    </trkpt>
    <trkpt lat="28.319976" lon="83.830103">
      <ele>2010.996769</ele>
      <time>2016-10-15T20:37:41Z</time>
    </trkpt>
    <trkpt lat="28.320067" lon="83.830094">
      <ele>2012.602830</ele>
      <time>2016-10-15T20:37:57Z</time>
    </trkpt>
    <trkpt lat="28.320161" lon="83.830077">
      <ele>2014.413088</ele>
      <time>2016-10-15T20:38:09Z</time>
    </trkpt>
    <trkpt lat="28.320260" lon="83.830060">
      <ele>2017.170853</ele>
      <time>2016-10-15T20:38:22Z</time>
    </trkpt>
    <trkpt lat="28.320356" lon="83.830039">
      <ele>2018.955390</ele>
      <time>2016-10-15T20:38:42Z</time>
    </trkpt>
    <trkpt lat="28.320452" lon="83.830018">
      <ele>2019.797538</ele>
      <time>2016-10-15T20:38:56Z</time>
    </trkpt>
    <trkpt lat="28.320542" lon="83.830005">
      <ele>2021.732888</ele>
      <time>2016-10-15T20:39:08Z</time>
    </trkpt>
    <trkpt lat="28.320633" lon="83.830004">
      <ele>2023.763486</ele>
      <time>2016-10-15T20:39:21Z</time>
    </trkpt>
    <trkpt lat="28.320723" lon="83.830011">
      <ele>2025.770736</ele>
      <time>2016-10-15T20:39:39Z</time>
    </trkpt>
    <trkpt lat="28.320814" lon="83.830031">
      <ele>2027.864336</ele>
      <time>2016-10-15T20:39:54Z</time>
    </trkpt>
    <trkpt lat="28.320896" lon="83.830028">
      <ele>2029.681882</ele>
      <time>2016-10-15T20:40:08Z</time>
    </trkpt>
    <trkpt lat="28.320978" lon="83.830010">
      <ele>2031.244998</ele>
      <time>2016-10-15T20:40:21Z</time>
    </trkpt>
    <trkpt lat="28.321060" lon="83.829974">
      <ele>2032.675993</ele>
      <time>2016-10-15T20:40:42Z</time>
    </trkpt>
    <trkpt lat="28.321150" lon="83.829953">
      <ele>2034.196649</ele>
      <time>2016-10-15T20:41:00Z</time>
    </trkpt>
    <trkpt lat="28.321240" lon="83.829934">
      <ele>2035.687154</ele>
      <time>2016-10-15T20:41:12Z</time>
    </trkpt>
    <trkpt lat="28.321331" lon="83.829927">
      <ele>2037.042418</ele>
      <time>2016-10-15T20:41:29Z</time>
    </trkpt>
    <trkpt lat="28.321422" lon="83.829937">
      <ele>2038.497640</ele>
      <time>2016-10-15T20:41:43Z</time>
    </trkpt>
    <trkpt lat="28.321515" lon="83.829946">
      <ele>2041.135760</ele>
      <time>2016-10-15T20:41:54Z</time>
    </trkpt>
    <trkpt lat="28.321608" lon="83.829958">
      <ele>2042.941630</ele>
      <time>2016-10-15T20:42:06Z</time>
    </trkpt>
    <trkpt lat="28.321705" lon="83.829965">
      <ele>2044.689328</ele>
      <time>2016-10-15T20:42:15Z</time>
    </trkpt>
    <trkpt lat="28.321797" lon="83.829989">
      <ele>2046.348081</ele>
      <time>2016-10-15T20:42:27Z</time>
    </trkpt>
    <trkpt lat="28.321881" lon="83.830028">
      <ele>2048.043412</ele>
      <time>2016-10-15T20:42:39Z</time>
    </trkpt>
    <trkpt lat="28.321955" lon="83.830087">
      <ele>2048.971572</ele>
      <time>2016-10-15T20:42:45Z</time>
    </trkpt>
    <trkpt lat="28.322028" lon="83.830147">
      <ele>2050.553812</ele>
      <time>2016-10-15T20:42:57Z</time>
    </trkpt>
    <trkpt lat="28.322112" lon="83.830184">
      <ele>2052.110671</ele>
      <time>2016-10-15T20:43:05Z</time>
    </trkpt>
    <trkpt lat="28.322201" lon="83.830201">
      <ele>2053.612991</ele>
      <time>2016-10-15T20:43:17Z</time>
    </trkpt>
    <trkpt lat="28.322285" lon="83.830194">
      <ele>2054.945716</ele>
      <time>2016-10-15T20:44:27Z</time>
    </trkpt>
    <trkpt lat="28.322357" lon="83.830165">
      <ele>2056.025568</ele>
      <time>2016-10-15T20:47:01Z</time>
    </trkpt>
    <trkpt lat="28.322427" lon="83.830128">
      <ele>2056.844597</ele>
      <time>2016-10-15T20:47:22Z</time>
    </trkpt>
    <trkpt lat="28.322500" lon="83.830121">
      <ele>2057.531176</ele>
      <time>2016-10-15T20:47:44Z</time>
    </trkpt>
    <trkpt lat="28.322581" lon="83.830123">
      <ele>2058.134475</ele>
      <time>2016-10-15T20:48:02Z</time>
    </trkpt>
    <trkpt lat="28.322664" lon="83.830128">
      <ele>2058.965952</ele>
      <time>2016-10-15T20:48:36Z</time>
    </trkpt>
    <trkpt lat="28.322753" lon="83.830115">
      <ele>2060.326823</ele>
      <time>2016-10-15T20:49:18Z</time>
    </trkpt>
    <trkpt lat="28.322842" lon="83.830108">
      <ele>2061.899051</ele>
      <time>2016-10-15T20:49:44Z</time>
    </trkpt>
    <trkpt lat="28.322932" lon="83.830097">
      <ele>2063.856208</ele>
      <time>2016-10-15T20:50:09Z</time>
    </trkpt>
    <trkpt lat="28.323018" lon="83.830100">
      <ele>2066.029606</ele>
      <time>2016-10-15T20:50:27Z</time>
    </trkpt>
    <trkpt lat="28.323106" lon="83.830122">
      <ele>2068.460619</ele>
      <time>2016-10-15T20:50:45Z</time>
    </trkpt>
    <trkpt lat="28.323197" lon="83.830155">
      <ele>2071.296810</ele>
      <time>2016-10-15T20:50:58Z</time>
    </trkpt>
    <trkpt lat="28.323294" lon="83.830173">
      <ele>2074.331160</ele>
      <time>2016-10-15T20:51:05Z</time>
    </trkpt>
    <trkpt lat="28.323393" lon="83.830170">
      <ele>2077.544814</ele>
      <time>2016-10-15T20:51:13Z</time>
    </trkpt>
    <trkpt lat="28.323488" lon="83.830148">
      <ele>2080.801596</ele>
      <time>2016-10-15T20:51:25Z</time>
    </trkpt>
    <trkpt lat="28.323578" lon="83.830106">
      <ele>2084.024780</ele>
      <time>2016-10-15T20:51:35Z</time>
    </trkpt>
    <trkpt lat="28.323661" lon="83.830057">
      <ele>2086.752844</ele>
      <time>2016-10-15T20:51:47Z</time>
    </trkpt>
    <trkpt lat="28.323748" lon="83.830011">
      <ele>2089.275132</ele>
      <time>2016-10-15T20:51:57Z</time>
    </trkpt>
    <trkpt lat="28.323837" lon="83.829977">
      <ele>2091.317930</ele>
      <time>2016-10-15T20:52:04Z</time>
    </trkpt>
    <trkpt lat="28.323926" lon="83.829945">
      <ele>2093.134762</ele>
      <time>2016-10-15T20:52:16Z</time>
    </trkpt>
    <trkpt lat="28.324015" lon="83.829917">
      <ele>2095.154012</ele>
      <time>2016-10-15T20:52:32Z</time>
    </trkpt>
    <trkpt lat="28.324100" lon="83.829880">
      <ele>2096.269779</ele>
      <time>2016-10-15T20:52:49Z</time>
    </trkpt>
    <trkpt lat="28.324185" lon="83.829845">
      <ele>2097.283131</ele>
      <time>2016-10-15T20:53:05Z</time>
    </trkpt>
    <trkpt lat="28.324266" lon="83.829804">
      <ele>2098.243653</ele>
      <time>2016-10-15T20:53:25Z</time>
    </trkpt>
    <trkpt lat="28.324349" lon="83.829784">
      <ele>2099.260073</ele>
      <time>2016-10-15T20:53:39Z</time>
    </trkpt>
    <trkpt lat="28.324430" lon="83.829756">
      <ele>2100.301193</ele>
      <time>2016-10-15T20:54:01Z</time>
    </trkpt>
    <trkpt lat="28.324511" lon="83.829726">
      <ele>2101.436560</ele>
      <time>2016-10-15T20:54:14Z</time>
    </trkpt>
    <trkpt lat="28.324594" lon="83.829681">
      <ele>2102.778942</ele>
      <time>2016-10-15T20:54:30Z</time>
    </trkpt>
    <trkpt lat="28.324677" lon="83.829638">
      <ele>2104.351509</ele>
      <time>2016-10-15T20:54:44Z</time>
    </trkpt>
    <trkpt lat="28.324758" lon="83.829590">
      <ele>2106.216755</ele>
      <time>2016-10-15T20:55:02Z</time>
    </trkpt>
    <trkpt lat="28.324837" lon="83.829530">
      <ele>2108.159399</ele>
      <time>2016-10-15T20:55:13Z</time>
    </trkpt>
    <trkpt lat="28.324918" lon="83.829476">
      <ele>2110.394583</ele>
      <time>2016-10-15T20:55:34Z</time>
    </trkpt>
    <trkpt lat="28.325002" lon="83.829431">
      <ele>2112.818488</ele>
      <time>2016-10-15T20:55:44Z</time>
    </trkpt>
    <trkpt lat="28.325086" lon="83.829393">
      <ele>2114.005632</ele>
      <time>2016-10-15T20:55:58Z</time>
    </trkpt>
    <trkpt lat="28.325164" lon="83.829345">
      <ele>2116.656336</ele>
      <time>2016-10-15T20:56:08Z</time>
    </trkpt>
    <trkpt lat="28.325240" lon="83.829290">
      <ele>2119.271826</ele>
      <time>2016-10-15T20:56:23Z</time>
    </trkpt>
    <trkpt lat="28.325315" lon="83.829232">
      <ele>2121.868490</ele>
      <time>2016-10-15T20:56:38Z</time>
    </trkpt>
    <trkpt lat="28.325397" lon="83.829174">
      <ele>2124.363144</ele>
      <time>2016-10-15T20:56:47Z</time>
    </trkpt>
    <trkpt lat="28.325480" lon="83.829117">
      <ele>2126.704128</ele>
      <time>2016-10-15T20:56:57Z</time>
    </trkpt>
    <trkpt lat="28.325567" lon="83.829082">
      <ele>2128.939949</ele>
      <time>2016-10-15T20:57:12Z</time>
    </trkpt>
    <trkpt lat="28.325655" lon="83.829086">
      <ele>2130.946828</ele>
      <time>2016-10-15T20:57:22Z</time>
    </trkpt>
    <trkpt lat="28.325744" lon="83.829110">
      <ele>2132.942725</ele>
      <time>2016-10-15T20:57:32Z</time>
    </trkpt>
    <trkpt lat="28.325831" lon="83.829120">
      <ele>2134.738135</ele>
      <time>2016-10-15T20:57:42Z</time>
    </trkpt>
    <trkpt lat="28.325919" lon="83.829126">
      <ele>2136.396365</ele>
      <time>2016-10-15T20:57:53Z</time>
    </trkpt>
    <trkpt lat="28.326007" lon="83.829138">
      <ele>2137.795781</ele>
      <time>2016-10-15T20:58:03Z</time>
    </trkpt>
    <trkpt lat="28.326098" lon="83.829158">
      <ele>2139.064766</ele>
      <time>2016-10-15T20:58:27Z</time>
    </trkpt>
    <trkpt lat="28.326192" lon="83.829170">
      <ele>2140.118148</ele>
      <time>2016-10-15T20:58:37Z</time>
    </trkpt>
    <trkpt lat="28.326286" lon="83.829164">
      <ele>2141.048921</ele>
      <time>2016-10-15T20:58:47Z</time>
    </trkpt>
    <trkpt lat="28.326377" lon="83.829168">
      <ele>2141.854129</ele>
      <time>2016-10-15T20:58:58Z</time>
    </trkpt>
    <trkpt lat="28.326467" lon="83.829163">
      <ele>2142.585076</ele>
      <time>2016-10-15T20:59:13Z</time>
    </trkpt>
    <trkpt lat="28.326554" lon="83.829183">
      <ele>2143.173194</ele>
      <time>2016-10-15T20:59:20Z</time>
    </trkpt>
    <trkpt lat="28.326643" lon="83.829201">
      <ele>2143.522741</ele>
      <time>2016-10-15T20:59:29Z</time>
    </trkpt>
    <trkpt lat="28.326729" lon="83.829243">
      <ele>2143.768756</ele>
      <time>2016-10-15T20:59:38Z</time>
    </trkpt>
    <trkpt lat="28.326819" lon="83.829252">
      <ele>2143.913629</ele>
      <time>2016-10-15T20:59:47Z</time>
    </trkpt>
    <trkpt lat="28.326907" lon="83.829241">
      <ele>2143.818773</ele>
      <time>2016-10-15T20:59:58Z</time>
    </trkpt>
    <trkpt lat="28.326997" lon="83.829202">
      <ele>2143.631873</ele>
      <time>2016-10-15T21:00:06Z</time>
    </trkpt>
    <trkpt lat="28.327087" lon="83.829181">
      <ele>2143.255824</ele>
      <time>2016-10-15T21:00:16Z</time>
    </trkpt>
    <trkpt lat="28.327177" lon="83.829183">
      <ele>2142.745853</ele>
      <time>2016-10-15T21:00:26Z</time>
    </trkpt>
    <trkpt lat="28.327269" lon="83.829203">
      <ele>2142.014284</ele>
      <time>2016-10-15T21:00:34Z</time>
    </trkpt>
    <trkpt lat="28.327366" lon="83.829223">
      <ele>2141.179022</ele>
      <time>2016-10-15T21:00:48Z</time>
    </trkpt>
    <trkpt lat="28.327457" lon="83.829212">
      <ele>2140.302503</ele>
      <time>2016-10-15T21:00:57Z</time>
    </trkpt>
    <trkpt lat="28.327550" lon="83.829189">
      <ele>2139.465877</ele>
      <time>2016-10-15T21:01:04Z</time>
    </trkpt>
    <trkpt lat="28.327644" lon="83.829158">
      <ele>2138.391706</ele>
      <time>2016-10-15T21:01:13Z</time>
    </trkpt>
    <trkpt lat="28.327745" lon="83.829149">
      <ele>2137.250392</ele>
      <time>2016-10-15T21:01:22Z</time>
    </trkpt>
    <trkpt lat="28.327837" lon="83.829168">
      <ele>2136.618771</ele>
      <time>2016-10-15T21:01:32Z</time>
    </trkpt>
    <trkpt lat="28.327923" lon="83.829206">
      <ele>2136.049644</ele>
      <time>2016-10-15T21:01:42Z</time>
    </trkpt>
    <trkpt lat="28.328007" lon="83.829251">
      <ele>2135.631187</ele>
      <time>2016-10-15T21:01:54Z</time>
    </trkpt>
    <trkpt lat="28.328088" lon="83.829298">
      <ele>2135.289569</ele>
      <time>2016-10-15T21:02:08Z</time>
    </trkpt>
    <trkpt lat="28.328158" lon="83.829360">
      <ele>2135.208280</ele>
      <time>2016-10-15T21:02:19Z</time>
    </trkpt>
    <trkpt lat="28.328218" lon="83.829441">
      <ele>2135.205164</ele>
      <time>2016-10-15T21:02:31Z</time>
    </trkpt>
    <trkpt lat="28.328264" lon="83.829533">
      <ele>2135.300516</ele>
      <time>2016-10-15T21:02:39Z</time>
    </trkpt>
    <trkpt lat="28.328315" lon="83.829616">
      <ele>2135.436359</ele>
      <time>2016-10-15T21:02:47Z</time>
    </trkpt>
    <trkpt lat="28.328379" lon="83.829664">
      <ele>2135.672199</ele>
      <time>2016-10-15T21:03:02Z</time>
    </trkpt>
    <trkpt lat="28.328467" lon="83.829682">
      <ele>2135.914549</ele>
      <time>2016-10-15T21:03:09Z</time>
    </trkpt>
    <trkpt lat="28.328564" lon="83.829684">
      <ele>2135.869774</ele>
      <time>2016-10-15T21:03:18Z</time>
    </trkpt>
    <trkpt lat="28.328656" lon="83.829712">
      <ele>2135.734619</ele>
      <time>2016-10-15T21:03:26Z</time>
    </trkpt>
    <trkpt lat="28.328742" lon="83.829755">
      <ele>2135.572774</ele>
      <time>2016-10-15T21:03:34Z</time>
    </trkpt>
    <trkpt lat="28.328822" lon="83.829804">
      <ele>2135.181942</ele>
      <time>2016-10-15T21:03:44Z</time>
    </trkpt>
    <trkpt lat="28.328909" lon="83.829840">
      <ele>2134.681091</ele>
      <time>2016-10-15T21:03:53Z</time>
    </trkpt>
    <trkpt lat="28.329002" lon="83.829858">
      <ele>2134.127905</ele>
      <time>2016-10-15T21:04:02Z</time>
    </trkpt>
    <trkpt lat="28.329096" lon="83.829862">
      <ele>2133.508137</ele>
      <time>2016-10-15T21:04:13Z</time>
    </trkpt>
    <trkpt lat="28.329188" lon="83.829855">
      <ele>2132.948692</ele>
      <time>2016-10-15T21:04:24Z</time>
    </trkpt>
    <trkpt lat="28.329279" lon="83.829835">
      <ele>2132.591123</ele>
      <time>2016-10-15T21:04:33Z</time>
    </trkpt>
    <trkpt lat="28.329366" lon="83.829835">
      <ele>2132.221415</ele>
      <time>2016-10-15T21:04:43Z</time>
    </trkpt>
    <trkpt lat="28.329447" lon="83.829870">
      <ele>2131.875688</ele>
      <time>2016-10-15T21:04:52Z</time>
    </trkpt>
    <trkpt lat="28.329530" lon="83.829909">
      <ele>2131.611197</ele>
      <time>2016-10-15T21:05:01Z</time>
    </trkpt>
    <trkpt lat="28.329616" lon="83.829918">
      <ele>2131.202089</ele>
      <time>2016-10-15T21:05:41Z</time>
    </trkpt>
    <trkpt lat="28.329710" lon="83.829889">
      <ele>2130.946743</ele>
      <time>2016-10-15T21:05:50Z</time>
    </trkpt>
    <trkpt lat="28.329803" lon="83.829873">
      <ele>2130.668204</ele>
      <time>2016-10-15T21:06:01Z</time>
    </trkpt>
    <trkpt lat="28.329892" lon="83.829882">
      <ele>2130.294636</ele>
      <time>2016-10-15T21:06:21Z</time>
    </trkpt>
    <trkpt lat="28.329976" lon="83.829915">
      <ele>2119.322778</ele>
      <time>2016-10-15T21:10:52Z</time>
      <extensions>
        <pause>start</pause>
        <type>auto</type>
      </extensions>
    </trkpt>
    <trkpt lat="28.330227" lon="83.830051">
      <ele>2117.185318</ele>
      <time>2016-10-15T21:11:19Z</time>
      <extensions>
        <pause>end</pause>
        <type>manual</type>
      </extensions>
    </trkpt>
    <trkpt lat="28.330311" lon="83.830091">
      <ele>2127.759441</ele>
      <time>2016-10-15T21:11:27Z</time>
    </trkpt>
    <trkpt lat="28.330398" lon="83.830117">
      <ele>2126.458846</ele>
      <time>2016-10-15T21:11:34Z</time>
    </trkpt>
    <trkpt lat="28.330492" lon="83.830124">
      <ele>2125.259120</ele>
      <time>2016-10-15T21:11:42Z</time>
    </trkpt>
    <trkpt lat="28.330590" lon="83.830127">
      <ele>2123.956073</ele>
      <time>2016-10-15T21:11:51Z</time>
    </trkpt>
    <trkpt lat="28.330693" lon="83.830124">
      <ele>2122.791099</ele>
      <time>2016-10-15T21:11:57Z</time>
    </trkpt>
    <trkpt lat="28.330794" lon="83.830123">
      <ele>2121.804413</ele>
      <time>2016-10-15T21:12:05Z</time>
    </trkpt>
    <trkpt lat="28.330894" lon="83.830140">
      <ele>2120.973112</ele>
      <time>2016-10-15T21:12:15Z</time>
    </trkpt>
    <trkpt lat="28.330991" lon="83.830158">
      <ele>2120.180003</ele>
      <time>2016-10-15T21:12:28Z</time>
    </trkpt>
    <trkpt lat="28.331082" lon="83.830193">
      <ele>2119.433052</ele>
      <time>2016-10-15T21:12:42Z</time>
    </trkpt>
    <trkpt lat="28.331158" lon="83.830238">
      <ele>2118.664065</ele>
      <time>2016-10-15T21:12:53Z</time>
    </trkpt>
    <trkpt lat="28.331233" lon="83.830302">
      <ele>2117.912341</ele>
      <time>2016-10-15T21:13:02Z</time>
    </trkpt>
    <trkpt lat="28.331313" lon="83.830361">
      <ele>2117.642236</ele>
      <time>2016-10-15T21:13:10Z</time>
    </trkpt>
    <trkpt lat="28.331405" lon="83.830398">
      <ele>2117.561503</ele>
      <time>2016-10-15T21:13:20Z</time>
    </trkpt>
    <trkpt lat="28.331491" lon="83.830436">
      <ele>2117.422852</ele>
      <time>2016-10-15T21:13:43Z</time>
    </trkpt>
    <trkpt lat="28.331566" lon="83.830486">
      <ele>2117.233921</ele>
      <time>2016-10-15T21:13:57Z</time>
    </trkpt>
    <trkpt lat="28.331637" lon="83.830550">
      <ele>2117.076350</ele>
      <time>2016-10-15T21:14:13Z</time>
    </trkpt>
    <trkpt lat="28.331705" lon="83.830568">
      <ele>2116.930550</ele>
      <time>2016-10-15T21:14:24Z</time>
    </trkpt>
    <trkpt lat="28.331784" lon="83.830556">
      <ele>2116.528607</ele>
      <time>2016-10-15T21:14:38Z</time>
    </trkpt>
    <trkpt lat="28.331868" lon="83.830529">
      <ele>2116.399655</ele>
      <time>2016-10-15T21:14:49Z</time>
    </trkpt>
    <trkpt lat="28.331961" lon="83.830536">
      <ele>2115.865404</ele>
      <time>2016-10-15T21:14:59Z</time>
    </trkpt>
    <trkpt lat="28.332054" lon="83.830545">
      <ele>2115.111823</ele>
      <time>2016-10-15T21:15:10Z</time>
    </trkpt>
    <trkpt lat="28.332142" lon="83.830567">
      <ele>2114.251926</ele>
      <time>2016-10-15T21:15:20Z</time>
    </trkpt>
    <trkpt lat="28.332219" lon="83.830606">
      <ele>2113.466032</ele>
      <time>2016-10-15T21:15:39Z</time>
    </trkpt>
    <trkpt lat="28.332295" lon="83.830646">
      <ele>2112.515064</ele>
      <time>2016-10-15T21:16:01Z</time>
    </trkpt>
    <trkpt lat="28.332376" lon="83.830665">
      <ele>2111.418899</ele>
      <time>2016-10-15T21:16:15Z</time>
    </trkpt>
    <trkpt lat="28.332457" lon="83.830685">
      <ele>2110.175795</ele>
      <time>2016-10-15T21:16:27Z</time>
    </trkpt>
    <trkpt lat="28.332538" lon="83.830718">
      <ele>2109.442585</ele>
      <time>2016-10-15T21:16:39Z</time>
    </trkpt>
    <trkpt lat="28.332620" lon="83.830765">
      <ele>2107.352544</ele>
      <time>2016-10-15T21:16:48Z</time>
    </trkpt>
    <trkpt lat="28.332705" lon="83.830809">
      <ele>2105.707341</ele>
      <time>2016-10-15T21:16:59Z</time>
    </trkpt>
    <trkpt lat="28.332791" lon="83.830855">
      <ele>2103.970038</ele>
      <time>2016-10-15T21:17:10Z</time>
    </trkpt>
    <trkpt lat="28.332876" lon="83.830884">
      <ele>2102.405998</ele>
      <time>2016-10-15T21:17:23Z</time>
    </trkpt>
    <trkpt lat="28.332965" lon="83.830888">
      <ele>2101.558862</ele>
      <time>2016-10-15T21:17:36Z</time>
    </trkpt>
    <trkpt lat="28.333051" lon="83.830870">
      <ele>2100.171556</ele>
      <time>2016-10-15T21:18:11Z</time>
    </trkpt>
    <trkpt lat="28.333130" lon="83.830839">
      <ele>2098.691789</ele>
      <time>2016-10-15T21:18:47Z</time>
    </trkpt>
    <trkpt lat="28.333183" lon="83.830782">
      <ele>2097.289005</ele>
      <time>2016-10-15T21:19:14Z</time>
    </trkpt>
    <trkpt lat="28.333209" lon="83.830702">
      <ele>2095.819540</ele>
      <time>2016-10-15T21:19:42Z</time>
    </trkpt>
    <trkpt lat="28.333234" lon="83.830616">
      <ele>2094.503457</ele>
      <time>2016-10-15T21:20:18Z</time>
    </trkpt>
    <trkpt lat="28.333282" lon="83.830544">
      <ele>2093.027719</ele>
      <time>2016-10-15T21:20:36Z</time>
    </trkpt>
    <trkpt lat="28.333354" lon="83.830482">
      <ele>2091.268221</ele>
      <time>2016-10-15T21:20:50Z</time>
    </trkpt>
    <trkpt lat="28.333423" lon="83.830420">
      <ele>2089.446912</ele>
      <time>2016-10-15T21:21:06Z</time>
    </trkpt>
    <trkpt lat="28.333488" lon="83.830355">
      <ele>2087.243606</ele>
      <time>2016-10-15T21:21:19Z</time>
    </trkpt>
    <trkpt lat="28.333559" lon="83.830297">
      <ele>2084.718583</ele>
      <time>2016-10-15T21:21:34Z</time>
    </trkpt>
    <trkpt lat="28.333635" lon="83.830248">
      <ele>2082.069065</ele>
      <time>2016-10-15T21:21:49Z</time>
    </trkpt>
    <trkpt lat="28.333711" lon="83.830237">
      <ele>2079.085701</ele>
      <time>2016-10-15T21:22:12Z</time>
    </trkpt>
    <trkpt lat="28.333789" lon="83.830230">
      <ele>2075.929262</ele>
      <time>2016-10-15T21:22:30Z</time>
    </trkpt>
    <trkpt lat="28.333865" lon="83.830257">
      <ele>2072.656556</ele>
      <time>2016-10-15T21:22:50Z</time>
    </trkpt>
    <trkpt lat="28.333937" lon="83.830291">
      <ele>2069.330442</ele>
      <time>2016-10-15T21:23:07Z</time>
    </trkpt>
    <trkpt lat="28.333994" lon="83.830366">
      <ele>2065.845210</ele>
      <time>2016-10-15T21:23:19Z</time>
    </trkpt>
    <trkpt lat="28.334047" lon="83.830448">
      <ele>2062.397908</ele>
      <time>2016-10-15T21:23:29Z</time>
    </trkpt>
    <trkpt lat="28.334100" lon="83.830523">
      <ele>2059.078393</ele>
      <time>2016-10-15T21:23:51Z</time>
    </trkpt>
    <trkpt lat="28.334158" lon="83.830592">
      <ele>2055.833234</ele>
      <time>2016-10-15T21:24:11Z</time>
    </trkpt>
    <trkpt lat="28.334222" lon="83.830627">
      <ele>2052.839106</ele>
      <time>2016-10-15T21:24:27Z</time>
    </trkpt>
    <trkpt lat="28.334287" lon="83.830649">
      <ele>2049.966669</ele>
      <time>2016-10-15T21:25:00Z</time>
    </trkpt>
    <trkpt lat="28.334362" lon="83.830658">
      <ele>2047.318888</ele>
      <time>2016-10-15T21:25:36Z</time>
    </trkpt>
    <trkpt lat="28.334436" lon="83.830692">
      <ele>2044.694151</ele>
      <time>2016-10-15T21:25:51Z</time>
    </trkpt>
    <trkpt lat="28.334519" lon="83.830724">
      <ele>2041.880162</ele>
      <time>2016-10-15T21:26:05Z</time>
    </trkpt>
    <trkpt lat="28.334600" lon="83.830724">
      <ele>2038.903297</ele>
      <time>2016-10-15T21:26:28Z</time>
    </trkpt>
    <trkpt lat="28.334659" lon="83.830712">
      <ele>2037.136251</ele>
      <time>2016-10-15T21:26:58Z</time>
    </trkpt>
    <trkpt lat="28.334688" lon="83.830702">
      <ele>1989.588920</ele>
      <time>2016-10-15T21:30:52Z</time>
      <extensions>
        <pause>start</pause>
        <type>auto</type>
      </extensions>
    </trkpt>
    <trkpt lat="28.334848" lon="83.830462">
      <ele>1978.244082</ele>
      <time>2016-10-15T21:32:18Z</time>
      <extensions>
        <pause>end</pause>
        <type>manual</type>
      </extensions>
    </trkpt>
    <trkpt lat="28.334929" lon="83.830457">
      <ele>2022.944819</ele>
      <time>2016-10-15T21:32:43Z</time>
    </trkpt>
    <trkpt lat="28.335010" lon="83.830466">
      <ele>2016.706012</ele>
      <time>2016-10-15T21:33:09Z</time>
    </trkpt>
    <trkpt lat="28.335091" lon="83.830489">
      <ele>2012.548912</ele>
      <time>2016-10-15T21:33:27Z</time>
    </trkpt>
    <trkpt lat="28.335159" lon="83.830486">
      <ele>2007.405900</ele>
      <time>2016-10-15T21:33:45Z</time>
    </trkpt>
    <trkpt lat="28.335218" lon="83.830448">
      <ele>2002.200754</ele>
      <time>2016-10-15T21:34:06Z</time>
    </trkpt>
    <trkpt lat="28.335255" lon="83.830363">
      <ele>1996.906876</ele>
      <time>2016-10-15T21:34:38Z</time>
    </trkpt>
    <trkpt lat="28.335279" lon="83.830274">
      <ele>1991.652073</ele>
      <time>2016-10-15T21:34:51Z</time>
    </trkpt>
    <trkpt lat="28.335272" lon="83.830174">
      <ele>1986.557353</ele>
      <time>2016-10-15T21:35:04Z</time>
    </trkpt>
    <trkpt lat="28.335276" lon="83.830091">
      <ele>1981.771795</ele>
      <time>2016-10-15T21:35:19Z</time>
    </trkpt>
    <trkpt lat="28.335305" lon="83.830047">
      <ele>1976.783258</ele>
      <time>2016-10-15T21:35:57Z</time>
    </trkpt>
    <trkpt lat="28.335376" lon="83.830042">
      <ele>1972.025274</ele>
      <time>2016-10-15T21:36:23Z</time>
    </trkpt>
    <trkpt lat="28.335459" lon="83.830058">
      <ele>1967.595332</ele>
      <time>2016-10-15T21:36:40Z</time>
    </trkpt>
    <trkpt lat="28.335539" lon="83.830085">
      <ele>1963.401879</ele>
      <time>2016-10-15T21:36:55Z</time>
    </trkpt>
    <trkpt lat="28.335614" lon="83.830086">
      <ele>1958.766484</ele>
      <time>2016-10-15T21:37:29Z</time>
    </trkpt>
    <trkpt lat="28.335681" lon="83.830066">
      <ele>1954.702924</ele>
      <time>2016-10-15T21:37:55Z</time>
    </trkpt>
    <trkpt lat="28.335753" lon="83.830034">
      <ele>1948.839829</ele>
      <time>2016-10-15T21:38:26Z</time>
    </trkpt>
    <trkpt lat="28.335830" lon="83.830037">
      <ele>1946.726424</ele>
      <time>2016-10-15T21:38:48Z</time>
    </trkpt>
    <trkpt lat="28.335919" lon="83.830045">
      <ele>1944.902036</ele>
      <time>2016-10-15T21:39:04Z</time>
    </trkpt>
    <trkpt lat="28.336011" lon="83.830041">
      <ele>1940.764019</ele>
      <time>2016-10-15T21:39:17Z</time>
    </trkpt>
    <trkpt lat="28.336103" lon="83.830026">
      <ele>1936.678245</ele>
      <time>2016-10-15T21:39:38Z</time>
    </trkpt>
    <trkpt lat="28.336186" lon="83.830034">
      <ele>1932.537621</ele>
      <time>2016-10-15T21:39:53Z</time>
    </trkpt>
    <trkpt lat="28.336267" lon="83.830073">
      <ele>1928.147425</ele>
      <time>2016-10-15T21:40:08Z</time>
    </trkpt>
    <trkpt lat="28.336345" lon="83.830117">
      <ele>1923.679412</ele>
      <time>2016-10-15T21:40:28Z</time>
    </trkpt>
    <trkpt lat="28.336417" lon="83.830124">
      <ele>1919.457328</ele>
      <time>2016-10-15T21:40:49Z</time>
    </trkpt>
    <trkpt lat="28.336489" lon="83.830111">
      <ele>1917.858108</ele>
      <time>2016-10-15T21:41:14Z</time>
    </trkpt>
    <trkpt lat="28.336554" lon="83.830109">
      <ele>1914.271593</ele>
      <time>2016-10-15T21:41:41Z</time>
    </trkpt>
    <trkpt lat="28.336612" lon="83.830163">
      <ele>1910.162129</ele>
      <time>2016-10-15T21:41:54Z</time>
    </trkpt>
    <trkpt lat="28.336669" lon="83.830232">
      <ele>1906.503990</ele>
      <time>2016-10-15T21:42:13Z</time>
    </trkpt>
    <trkpt lat="28.336731" lon="83.830291">
      <ele>1902.901607</ele>
      <time>2016-10-15T21:42:26Z</time>
    </trkpt>
    <trkpt lat="28.336801" lon="83.830353">
      <ele>1897.630869</ele>
      <time>2016-10-15T21:43:00Z</time>
    </trkpt>
    <trkpt lat="28.336864" lon="83.830426">
      <ele>1894.206385</ele>
      <time>2016-10-15T21:43:15Z</time>
    </trkpt>
    <trkpt lat="28.336926" lon="83.830515">
      <ele>1890.854735</ele>
      <time>2016-10-15T21:43:28Z</time>
    </trkpt>
    <trkpt lat="28.336996" lon="83.830589">
      <ele>1887.357407</ele>
      <time>2016-10-15T21:43:37Z</time>
    </trkpt>
    <trkpt lat="28.337071" lon="83.830654">
      <ele>1883.583069</ele>
      <time>2016-10-15T21:43:44Z</time>
    </trkpt>
    <trkpt lat="28.337143" lon="83.830685">
      <ele>1879.659948</ele>
      <time>2016-10-15T21:44:22Z</time>
    </trkpt>
    <trkpt lat="28.337206" lon="83.830676">
      <ele>1875.837823</ele>
      <time>2016-10-15T21:45:13Z</time>
    </trkpt>
    <trkpt lat="28.337266" lon="83.830621">
      <ele>1872.736442</ele>
      <time>2016-10-15T21:45:50Z</time>
    </trkpt>
    <trkpt lat="28.337321" lon="83.830544">
      <ele>1869.334147</ele>
      <time>2016-10-15T21:46:09Z</time>
    </trkpt>
    <trkpt lat="28.337387" lon="83.830504">
      <ele>1865.984065</ele>
      <time>2016-10-15T21:46:31Z</time>
    </trkpt>
    <trkpt lat="28.337449" lon="83.830520">
      <ele>1864.426386</ele>
      <time>2016-10-15T21:46:47Z</time>
    </trkpt>
    <trkpt lat="28.337509" lon="83.830596">
      <ele>1860.694797</ele>
      <time>2016-10-15T21:48:26Z</time>
    </trkpt>
    <trkpt lat="28.337564" lon="83.830667">
      <ele>1856.869119</ele>
      <time>2016-10-15T21:48:55Z</time>
    </trkpt>
    <trkpt lat="28.337628" lon="83.830720">
      <ele>1853.492655</ele>
      <time>2016-10-15T21:49:19Z</time>
    </trkpt>
    <trkpt lat="28.337702" lon="83.830764">
      <ele>1850.210376</ele>
      <time>2016-10-15T21:49:42Z</time>
    </trkpt>
    <trkpt lat="28.337777" lon="83.830823">
      <ele>1845.481465</ele>
      <time>2016-10-15T21:49:55Z</time>
    </trkpt>
    <trkpt lat="28.337841" lon="83.830898">
      <ele>1842.439773</ele>
      <time>2016-10-15T21:50:05Z</time>
    </trkpt>
    <trkpt lat="28.337906" lon="83.830969">
      <ele>1839.710884</ele>
      <time>2016-10-15T21:50:12Z</time>
    </trkpt>
    <trkpt lat="28.337968" lon="83.831040">
      <ele>1836.496420</ele>
      <time>2016-10-15T21:50:20Z</time>
    </trkpt>
    <trkpt lat="28.338035" lon="83.831108">
      <ele>1833.261245</ele>
      <time>2016-10-15T21:50:29Z</time>
    </trkpt>
    <trkpt lat="28.338101" lon="83.831180">
      <ele>1829.970574</ele>
      <time>2016-10-15T21:50:38Z</time>
    </trkpt>
    <trkpt lat="28.338173" lon="83.831248">
      <ele>1827.441502</ele>
      <time>2016-10-15T21:50:45Z</time>
    </trkpt>
    <trkpt lat="28.338250" lon="83.831310">
      <ele>1825.192322</ele>
      <time>2016-10-15T21:50:52Z</time>
    </trkpt>
    <trkpt lat="28.338332" lon="83.831369">
      <ele>1822.468311</ele>
      <time>2016-10-15T21:51:00Z</time>
    </trkpt>
    <trkpt lat="28.338412" lon="83.831432">
      <ele>1819.805130</ele>
      <time>2016-10-15T21:51:08Z</time>
    </trkpt>
    <trkpt lat="28.338479" lon="83.831514">
      <ele>1816.291934</ele>
      <time>2016-10-15T21:51:16Z</time>
    </trkpt>
    <trkpt lat="28.338530" lon="83.831597">
      <ele>1813.860005</ele>
      <time>2016-10-15T21:51:24Z</time>
    </trkpt>
    <trkpt lat="28.338570" lon="83.831674">
      <ele>1812.242194</ele>
      <time>2016-10-15T21:51:51Z</time>
    </trkpt>
    <trkpt lat="28.338594" lon="83.831743">
      <ele>1810.150739</ele>
      <time>2016-10-15T21:52:44Z</time>
    </trkpt>
    <trkpt lat="28.338622" lon="83.831818">
      <ele>1808.117944</ele>
      <time>2016-10-15T21:54:46Z</time>
    </trkpt>
    <trkpt lat="28.338658" lon="83.831905">
      <ele>1806.411182</ele>
      <time>2016-10-15T21:54:54Z</time>
    </trkpt>
    <trkpt lat="28.338712" lon="83.831990">
      <ele>1804.717090</ele>
      <time>2016-10-15T21:55:04Z</time>
    </trkpt>
    <trkpt lat="28.338768" lon="83.832075">
      <ele>1804.393260</ele>
      <time>2016-10-15T21:55:12Z</time>
    </trkpt>
    <trkpt lat="28.338824" lon="83.832155">
      <ele>1803.512923</ele>
      <time>2016-10-15T21:55:22Z</time>
    </trkpt>
    <trkpt lat="28.338888" lon="83.832230">
      <ele>1802.148755</ele>
      <time>2016-10-15T21:55:32Z</time>
    </trkpt>
    <trkpt lat="28.338963" lon="83.832294">
      <ele>1800.417798</ele>
      <time>2016-10-15T21:55:41Z</time>
    </trkpt>
    <trkpt lat="28.339044" lon="83.832349">
      <ele>1798.583301</ele>
      <time>2016-10-15T21:55:52Z</time>
    </trkpt>
    <trkpt lat="28.339133" lon="83.832399">
      <ele>1796.722730</ele>
      <time>2016-10-15T21:56:01Z</time>
    </trkpt>
    <trkpt lat="28.339222" lon="83.832451">
      <ele>1794.182573</ele>
      <time>2016-10-15T21:56:12Z</time>
    </trkpt>
    <trkpt lat="28.339314" lon="83.832499">
      <ele>1792.769576</ele>
      <time>2016-10-15T21:56:19Z</time>
    </trkpt>
    <trkpt lat="28.339399" lon="83.832545">
      <ele>1792.159009</ele>
      <time>2016-10-15T21:56:27Z</time>
    </trkpt>
    <trkpt lat="28.339486" lon="83.832587">
      <ele>1790.557202</ele>
      <time>2016-10-15T21:56:38Z</time>
    </trkpt>
    <trkpt lat="28.339570" lon="83.832624">
      <ele>1787.848244</ele>
      <time>2016-10-15T21:56:47Z</time>
    </trkpt>
    <trkpt lat="28.339656" lon="83.832654">
      <ele>1785.891618</ele>
      <time>2016-10-15T21:57:19Z</time>
    </trkpt>
    <trkpt lat="28.339741" lon="83.832660">
      <ele>1784.486646</ele>
      <time>2016-10-15T21:57:50Z</time>
    </trkpt>
    <trkpt lat="28.339813" lon="83.832636">
      <ele>1783.472705</ele>
      <time>2016-10-15T21:58:09Z</time>
    </trkpt>
    <trkpt lat="28.339870" lon="83.832573">
      <ele>1782.515137</ele>
      <time>2016-10-15T21:58:36Z</time>
    </trkpt>
    <trkpt lat="28.339903" lon="83.832485">
      <ele>1781.731934</ele>
      <time>2016-10-15T21:58:48Z</time>
    </trkpt>
    <trkpt lat="28.339935" lon="83.832385">
      <ele>1780.328029</ele>
      <time>2016-10-15T21:58:58Z</time>
    </trkpt>
    <trkpt lat="28.339956" lon="83.832283">
      <ele>1779.130854</ele>
      <time>2016-10-15T21:59:07Z</time>
    </trkpt>
    <trkpt lat="28.339989" lon="83.832187">
      <ele>1778.107469</ele>
      <time>2016-10-15T21:59:17Z</time>
    </trkpt>
    <trkpt lat="28.340032" lon="83.832101">
      <ele>1776.318260</ele>
      <time>2016-10-15T21:59:25Z</time>
    </trkpt>
    <trkpt lat="28.340089" lon="83.832016">
      <ele>1774.518309</ele>
      <time>2016-10-15T21:59:35Z</time>
    </trkpt>
    <trkpt lat="28.340150" lon="83.831921">
      <ele>1772.949071</ele>
      <time>2016-10-15T21:59:43Z</time>
    </trkpt>
    <trkpt lat="28.340196" lon="83.831815">
      <ele>1771.710643</ele>
      <time>2016-10-15T21:59:52Z</time>
    </trkpt>
    <trkpt lat="28.340238" lon="83.831711">
      <ele>1770.766674</ele>
      <time>2016-10-15T21:59:59Z</time>
    </trkpt>
    <trkpt lat="28.340263" lon="83.831610">
      <ele>1769.624120</ele>
      <time>2016-10-15T22:00:07Z</time>
    </trkpt>
    <trkpt lat="28.340280" lon="83.831513">
      <ele>1768.828099</ele>
      <time>2016-10-15T22:00:19Z</time>
    </trkpt>
    <trkpt lat="28.340289" lon="83.831412">
      <ele>1768.555466</ele>
      <time>2016-10-15T22:00:35Z</time>
    </trkpt>
    <trkpt lat="28.340315" lon="83.831320">
      <ele>1768.344804</ele>
      <time>2016-10-15T22:00:46Z</time>
    </trkpt>
    <trkpt lat="28.340340" lon="83.831227">
      <ele>1767.888208</ele>
      <time>2016-10-15T22:00:52Z</time>
    </trkpt>
    <trkpt lat="28.340357" lon="83.831130">
      <ele>1768.366479</ele>
      <time>2016-10-15T22:00:59Z</time>
    </trkpt>
    <trkpt lat="28.340373" lon="83.831025">
      <ele>1768.990405</ele>
      <time>2016-10-15T22:01:08Z</time>
    </trkpt>
    <trkpt lat="28.340402" lon="83.830915">
      <ele>1769.754956</ele>
      <time>2016-10-15T22:01:13Z</time>
    </trkpt>
    <trkpt lat="28.340445" lon="83.830810">
      <ele>1770.328760</ele>
      <time>2016-10-15T22:01:19Z</time>
    </trkpt>
    <trkpt lat="28.340487" lon="83.830705">
      <ele>1769.995184</ele>
      <time>2016-10-15T22:01:25Z</time>
    </trkpt>
    <trkpt lat="28.340540" lon="83.830609">
      <ele>1769.931263</ele>
      <time>2016-10-15T22:01:34Z</time>
    </trkpt>
    <trkpt lat="28.340590" lon="83.830514">
      <ele>1769.532537</ele>
      <time>2016-10-15T22:01:43Z</time>
    </trkpt>
    <trkpt lat="28.340625" lon="83.830416">
      <ele>1769.022372</ele>
      <time>2016-10-15T22:01:50Z</time>
    </trkpt>
    <trkpt lat="28.340651" lon="83.830315">
      <ele>1768.373935</ele>
      <time>2016-10-15T22:01:56Z</time>
    </trkpt>
    <trkpt lat="28.340682" lon="83.830219">
      <ele>1767.947665</ele>
      <time>2016-10-15T22:02:03Z</time>
    </trkpt>
    <trkpt lat="28.340736" lon="83.830135">
      <ele>1767.771973</ele>
      <time>2016-10-15T22:02:10Z</time>
    </trkpt>
    <trkpt lat="28.340801" lon="83.830061">
      <ele>1767.293213</ele>
      <time>2016-10-15T22:02:19Z</time>
    </trkpt>
    <trkpt lat="28.340874" lon="83.829992">
      <ele>1766.625293</ele>
      <time>2016-10-15T22:02:29Z</time>
    </trkpt>
    <trkpt lat="28.340945" lon="83.829918">
      <ele>1765.884985</ele>
      <time>2016-10-15T22:02:40Z</time>
    </trkpt>
    <trkpt lat="28.341012" lon="83.829840">
      <ele>1765.660010</ele>
      <time>2016-10-15T22:02:50Z</time>
    </trkpt>
    <trkpt lat="28.341079" lon="83.829763">
      <ele>1765.473340</ele>
      <time>2016-10-15T22:03:01Z</time>
    </trkpt>
    <trkpt lat="28.341137" lon="83.829686">
      <ele>1765.640381</ele>
      <time>2016-10-15T22:03:12Z</time>
    </trkpt>
    <trkpt lat="28.341194" lon="83.829609">
      <ele>1765.940629</ele>
      <time>2016-10-15T22:03:19Z</time>
    </trkpt>
    <trkpt lat="28.341249" lon="83.829525">
      <ele>1766.180087</ele>
      <time>2016-10-15T22:03:27Z</time>
    </trkpt>
    <trkpt lat="28.341305" lon="83.829436">
      <ele>1766.516735</ele>
      <time>2016-10-15T22:03:39Z</time>
    </trkpt>
    <trkpt lat="28.341324" lon="83.829354">
      <ele>1766.388827</ele>
      <time>2016-10-15T22:03:55Z</time>
    </trkpt>
    <trkpt lat="28.341327" lon="83.829266">
      <ele>1766.447485</ele>
      <time>2016-10-15T22:04:18Z</time>
    </trkpt>
    <trkpt lat="28.341319" lon="83.829176">
      <ele>1765.631372</ele>
      <time>2016-10-15T22:04:30Z</time>
    </trkpt>
    <trkpt lat="28.341327" lon="83.829074">
      <ele>1764.871265</ele>
      <time>2016-10-15T22:04:44Z</time>
    </trkpt>
    <trkpt lat="28.341326" lon="83.828971">
      <ele>1764.046509</ele>
      <time>2016-10-15T22:04:57Z</time>
    </trkpt>
    <trkpt lat="28.341317" lon="83.828868">
      <ele>1763.112329</ele>
      <time>2016-10-15T22:05:08Z</time>
    </trkpt>
    <trkpt lat="28.341292" lon="83.828775">
      <ele>1762.765104</ele>
      <time>2016-10-15T22:05:21Z</time>
    </trkpt>
    <trkpt lat="28.341271" lon="83.828681">
      <ele>1762.752872</ele>
      <time>2016-10-15T22:05:33Z</time>
    </trkpt>
    <trkpt lat="28.341260" lon="83.828589">
      <ele>1762.738395</ele>
      <time>2016-10-15T22:05:47Z</time>
    </trkpt>
    <trkpt lat="28.341277" lon="83.828489">
      <ele>1763.072623</ele>
      <time>2016-10-15T22:06:01Z</time>
    </trkpt>
    <trkpt lat="28.341301" lon="83.828391">
      <ele>1763.520621</ele>
      <time>2016-10-15T22:06:15Z</time>
    </trkpt>
    <trkpt lat="28.341332" lon="83.828293">
      <ele>1764.596476</ele>
      <time>2016-10-15T22:06:29Z</time>
    </trkpt>
    <trkpt lat="28.341371" lon="83.828199">
      <ele>1766.621671</ele>
      <time>2016-10-15T22:06:40Z</time>
    </trkpt>
    <trkpt lat="28.341412" lon="83.828103">
      <ele>1768.832755</ele>
      <time>2016-10-15T22:06:53Z</time>
    </trkpt>
    <trkpt lat="28.341452" lon="83.828008">
      <ele>1771.472159</ele>
      <time>2016-10-15T22:07:10Z</time>
    </trkpt>
    <trkpt lat="28.341471" lon="83.827911">
      <ele>1774.340470</ele>
      <time>2016-10-15T22:07:23Z</time>
    </trkpt>
    <trkpt lat="28.341483" lon="83.827812">
      <ele>1776.759717</ele>
      <time>2016-10-15T22:07:36Z</time>
    </trkpt>
    <trkpt lat="28.341499" lon="83.827716">
      <ele>1778.827612</ele>
      <time>2016-10-15T22:07:49Z</time>
    </trkpt>
    <trkpt lat="28.341548" lon="83.827654">
      <ele>1780.795557</ele>
      <time>2016-10-15T22:08:01Z</time>
    </trkpt>
    <trkpt lat="28.341622" lon="83.827606">
      <ele>1781.570357</ele>
      <time>2016-10-15T22:08:14Z</time>
    </trkpt>
    <trkpt lat="28.341703" lon="83.827565">
      <ele>1784.487061</ele>
      <time>2016-10-15T22:08:25Z</time>
    </trkpt>
    <trkpt lat="28.341786" lon="83.827497">
      <ele>1786.463672</ele>
      <time>2016-10-15T22:08:35Z</time>
    </trkpt>
    <trkpt lat="28.341860" lon="83.827419">
      <ele>1788.013477</ele>
      <time>2016-10-15T22:08:45Z</time>
    </trkpt>
    <trkpt lat="28.341921" lon="83.827330">
      <ele>1789.492236</ele>
      <time>2016-10-15T22:08:55Z</time>
    </trkpt>
    <trkpt lat="28.341967" lon="83.827233">
      <ele>1790.142026</ele>
      <time>2016-10-15T22:09:06Z</time>
    </trkpt>
    <trkpt lat="28.342007" lon="83.827132">
      <ele>1790.652776</ele>
      <time>2016-10-15T22:09:15Z</time>
    </trkpt>
    <trkpt lat="28.342041" lon="83.827028">
      <ele>1791.117508</ele>
      <time>2016-10-15T22:09:25Z</time>
    </trkpt>
    <trkpt lat="28.342058" lon="83.826922">
      <ele>1791.507004</ele>
      <time>2016-10-15T22:09:35Z</time>
    </trkpt>
    <trkpt lat="28.342073" lon="83.826818">
      <ele>1791.931575</ele>
      <time>2016-10-15T22:09:42Z</time>
    </trkpt>
    <trkpt lat="28.342100" lon="83.826724">
      <ele>1792.129713</ele>
      <time>2016-10-15T22:09:50Z</time>
    </trkpt>
    <trkpt lat="28.342146" lon="83.826634">
      <ele>1792.309299</ele>
      <time>2016-10-15T22:09:59Z</time>
    </trkpt>
    <trkpt lat="28.342199" lon="83.826546">
      <ele>1792.043435</ele>
      <time>2016-10-15T22:10:09Z</time>
    </trkpt>
    <trkpt lat="28.342236" lon="83.826451">
      <ele>1791.773992</ele>
      <time>2016-10-15T22:10:19Z</time>
    </trkpt>
    <trkpt lat="28.342255" lon="83.826351">
      <ele>1791.158546</ele>
      <time>2016-10-15T22:10:30Z</time>
    </trkpt>
    <trkpt lat="28.342263" lon="83.826248">
      <ele>1790.946689</ele>
      <time>2016-10-15T22:10:41Z</time>
    </trkpt>
    <trkpt lat="28.342282" lon="83.826148">
      <ele>1790.374994</ele>
      <time>2016-10-15T22:10:49Z</time>
    </trkpt>
    <trkpt lat="28.342314" lon="83.826050">
      <ele>1789.630044</ele>
      <time>2016-10-15T22:10:57Z</time>
    </trkpt>
    <trkpt lat="28.342343" lon="83.825948">
      <ele>1788.720737</ele>
      <time>2016-10-15T22:11:06Z</time>
    </trkpt>
    <trkpt lat="28.342359" lon="83.825844">
      <ele>1787.732260</ele>
      <time>2016-10-15T22:11:14Z</time>
    </trkpt>
    <trkpt lat="28.342375" lon="83.825741">
      <ele>1786.692053</ele>
      <time>2016-10-15T22:11:25Z</time>
    </trkpt>
    <trkpt lat="28.342398" lon="83.825640">
      <ele>1785.536468</ele>
      <time>2016-10-15T22:11:42Z</time>
    </trkpt>
    <trkpt lat="28.342432" lon="83.825538">
      <ele>1784.367366</ele>
      <time>2016-10-15T22:11:52Z</time>
    </trkpt>
    <trkpt lat="28.342470" lon="83.825435">
      <ele>1783.203167</ele>
      <time>2016-10-15T22:12:00Z</time>
    </trkpt>
    <trkpt lat="28.342509" lon="83.825332">
      <ele>1781.965586</ele>
      <time>2016-10-15T22:12:12Z</time>
    </trkpt>
    <trkpt lat="28.342554" lon="83.825233">
      <ele>1780.782216</ele>
      <time>2016-10-15T22:12:22Z</time>
    </trkpt>
    <trkpt lat="28.342602" lon="83.825143">
      <ele>1779.635010</ele>
      <time>2016-10-15T22:12:31Z</time>
    </trkpt>
    <trkpt lat="28.342661" lon="83.825056">
      <ele>1778.605026</ele>
      <time>2016-10-15T22:12:41Z</time>
    </trkpt>
    <trkpt lat="28.342715" lon="83.824967">
      <ele>1778.047633</ele>
      <time>2016-10-15T22:12:56Z</time>
    </trkpt>
    <trkpt lat="28.342760" lon="83.824870">
      <ele>1776.765027</ele>
      <time>2016-10-15T22:13:06Z</time>
    </trkpt>
    <trkpt lat="28.342801" lon="83.824774">
      <ele>1776.323081</ele>
      <time>2016-10-15T22:13:15Z</time>
    </trkpt>
    <trkpt lat="28.342839" lon="83.824677">
      <ele>1775.412937</ele>
      <time>2016-10-15T22:13:25Z</time>
    </trkpt>
    <trkpt lat="28.342877" lon="83.824582">
      <ele>1775.287840</ele>
      <time>2016-10-15T22:13:36Z</time>
    </trkpt>
    <trkpt lat="28.342892" lon="83.824481">
      <ele>1775.019793</ele>
      <time>2016-10-15T22:13:47Z</time>
    </trkpt>
    <trkpt lat="28.342890" lon="83.824382">
      <ele>1774.907589</ele>
      <time>2016-10-15T22:14:00Z</time>
    </trkpt>
    <trkpt lat="28.342887" lon="83.824282">
      <ele>1775.070542</ele>
      <time>2016-10-15T22:14:12Z</time>
    </trkpt>
    <trkpt lat="28.342920" lon="83.824201">
      <ele>1775.292346</ele>
      <time>2016-10-15T22:14:26Z</time>
    </trkpt>
    <trkpt lat="28.342990" lon="83.824143">
      <ele>1775.684005</ele>
      <time>2016-10-15T22:14:38Z</time>
    </trkpt>
    <trkpt lat="28.343079" lon="83.824107">
      <ele>1776.442749</ele>
      <time>2016-10-15T22:14:49Z</time>
    </trkpt>
    <trkpt lat="28.343173" lon="83.824075">
      <ele>1777.447787</ele>
      <time>2016-10-15T22:14:59Z</time>
    </trkpt>
    <trkpt lat="28.343266" lon="83.824037">
      <ele>1777.924499</ele>
      <time>2016-10-15T22:15:09Z</time>
    </trkpt>
    <trkpt lat="28.343353" lon="83.823990">
      <ele>1778.916052</ele>
      <time>2016-10-15T22:15:32Z</time>
    </trkpt>
    <trkpt lat="28.343438" lon="83.823945">
      <ele>1780.141336</ele>
      <time>2016-10-15T22:15:48Z</time>
    </trkpt>
    <trkpt lat="28.343522" lon="83.823899">
      <ele>1780.995570</ele>
      <time>2016-10-15T22:15:59Z</time>
    </trkpt>
    <trkpt lat="28.343613" lon="83.823861">
      <ele>1781.970065</ele>
      <time>2016-10-15T22:16:10Z</time>
    </trkpt>
    <trkpt lat="28.343704" lon="83.823836">
      <ele>1782.763127</ele>
      <time>2016-10-15T22:16:19Z</time>
    </trkpt>
    <trkpt lat="28.343797" lon="83.823829">
      <ele>1783.335879</ele>
      <time>2016-10-15T22:16:27Z</time>
    </trkpt>
    <trkpt lat="28.343889" lon="83.823837">
      <ele>1783.829419</ele>
      <time>2016-10-15T22:16:38Z</time>
    </trkpt>
    <trkpt lat="28.343982" lon="83.823848">
      <ele>1784.179911</ele>
      <time>2016-10-15T22:16:54Z</time>
    </trkpt>
    <trkpt lat="28.344075" lon="83.823850">
      <ele>1784.268266</ele>
      <time>2016-10-15T22:17:05Z</time>
    </trkpt>
    <trkpt lat="28.344167" lon="83.823863">
      <ele>1784.319559</ele>
      <time>2016-10-15T22:17:16Z</time>
    </trkpt>
    <trkpt lat="28.344257" lon="83.823863">
      <ele>1784.624540</ele>
      <time>2016-10-15T22:17:29Z</time>
    </trkpt>
    <trkpt lat="28.344347" lon="83.823877">
      <ele>1784.494030</ele>
      <time>2016-10-15T22:17:39Z</time>
    </trkpt>
    <trkpt lat="28.344439" lon="83.823886">
      <ele>1784.269693</ele>
      <time>2016-10-15T22:17:49Z</time>
    </trkpt>
    <trkpt lat="28.344530" lon="83.823919">
      <ele>1784.007498</ele>
      <time>2016-10-15T22:18:04Z</time>
    </trkpt>
    <trkpt lat="28.344617" lon="83.823963">
      <ele>1783.697656</ele>
      <time>2016-10-15T22:18:13Z</time>
    </trkpt>
    <trkpt lat="28.344706" lon="83.824003">
      <ele>1783.398682</ele>
      <time>2016-10-15T22:18:22Z</time>
    </trkpt>
    <trkpt lat="28.344798" lon="83.824027">
      <ele>1782.964211</ele>
      <time>2016-10-15T22:18:31Z</time>
    </trkpt>
    <trkpt lat="28.344897" lon="83.824031">
      <ele>1782.521474</ele>
      <time>2016-10-15T22:18:40Z</time>
    </trkpt>
    <trkpt lat="28.344995" lon="83.824025">
      <ele>1782.129767</ele>
      <time>2016-10-15T22:18:51Z</time>
    </trkpt>
    <trkpt lat="28.345091" lon="83.824003">
      <ele>1781.518921</ele>
      <time>2016-10-15T22:19:01Z</time>
    </trkpt>
    <trkpt lat="28.345180" lon="83.823969">
      <ele>1781.106990</ele>
      <time>2016-10-15T22:19:12Z</time>
    </trkpt>
    <trkpt lat="28.345268" lon="83.823925">
      <ele>1780.734898</ele>
      <time>2016-10-15T22:19:22Z</time>
    </trkpt>
    <trkpt lat="28.345349" lon="83.823878">
      <ele>1780.426259</ele>
      <time>2016-10-15T22:19:30Z</time>
    </trkpt>
    <trkpt lat="28.345433" lon="83.823822">
      <ele>1780.172268</ele>
      <time>2016-10-15T22:19:38Z</time>
    </trkpt>
    <trkpt lat="28.345515" lon="83.823770">
      <ele>1779.833651</ele>
      <time>2016-10-15T22:19:46Z</time>
    </trkpt>
    <trkpt lat="28.345599" lon="83.823720">
      <ele>1779.095855</ele>
      <time>2016-10-15T22:19:54Z</time>
    </trkpt>
    <trkpt lat="28.345685" lon="83.823673">
      <ele>1778.578355</ele>
      <time>2016-10-15T22:20:02Z</time>
    </trkpt>
    <trkpt lat="28.345769" lon="83.823620">
      <ele>1777.947415</ele>
      <time>2016-10-15T22:20:11Z</time>
    </trkpt>
    <trkpt lat="28.345855" lon="83.823569">
      <ele>1777.249402</ele>
      <time>2016-10-15T22:20:19Z</time>
    </trkpt>
    <trkpt lat="28.345929" lon="83.823507">
      <ele>1776.399543</ele>
      <time>2016-10-15T22:20:31Z</time>
    </trkpt>
    <trkpt lat="28.345989" lon="83.823431">
      <ele>1775.445352</ele>
      <time>2016-10-15T22:20:50Z</time>
    </trkpt>
    <trkpt lat="28.346015" lon="83.823337">
      <ele>1774.216082</ele>
      <time>2016-10-15T22:21:02Z</time>
    </trkpt>
    <trkpt lat="28.345989" lon="83.823254">
      <ele>1773.073304</ele>
      <time>2016-10-15T22:21:19Z</time>
    </trkpt>
    <trkpt lat="28.345918" lon="83.823216">
      <ele>1771.872076</ele>
      <time>2016-10-15T22:22:14Z</time>
    </trkpt>
    <trkpt lat="28.345873" lon="83.823211">
      <ele>1771.085944</ele>
      <time>2016-10-15T22:22:36Z</time>
    </trkpt>
    </trkseg>
  </trk>
</gpx>
